{
"type": "FeatureCollection",
"name": "bike",
"crs": { "type": "name", "properties": { "name": "urn:ogc:def:crs:OGC:1.3:CRS84" } },
"xy_coordinate_resolution": 1e-05,
"features": [
{ "type": "Feature", "properties": { }, "geometry": { "type": "MultiPolygon", "coordinates": [ [ [ [ -117.19181, 32.75144 ], [ -117.19164, 32.75109 ], [ -117.1917, 32.75082 ], [ -117.19214, 32.75109 ], [ -117.19181, 32.75144 ] ] ], [ [ [ -117.19149, 32.75071 ], [ -117.1913, 32.75073 ], [ -117.19108, 32.75069 ], [ -117.19049, 32.75034 ], [ -117.1903, 32.75037 ], [ -117.19012, 32.75033 ], [ -117.18971, 32.75008 ], [ -117.18945, 32.75002 ], [ -117.18924, 32.74986 ], [ -117.18893, 32.74984 ], [ -117.18862, 32.74969 ], [ -117.18858, 32.74988 ], [ -117.18843, 32.75003 ], [ -117.18822, 32.75011 ], [ -117.18798, 32.7501 ], [ -117.18687, 32.74945 ], [ -117.1866, 32.74934 ], [ -117.18653, 32.74936 ], [ -117.18647, 32.74963 ], [ -117.18627, 32.7498 ], [ -117.186, 32.74985 ], [ -117.1857, 32.74973 ], [ -117.18559, 32.74959 ], [ -117.18556, 32.74943 ], [ -117.18557, 32.74921 ], [ -117.18567, 32.74896 ], [ -117.18584, 32.74877 ], [ -117.18605, 32.74863 ], [ -117.18633, 32.74853 ], [ -117.18654, 32.74851 ], [ -117.18635, 32.74803 ], [ -117.18634, 32.74772 ], [ -117.18648, 32.74745 ], [ -117.18672, 32.74724 ], [ -117.18676, 32.74694 ], [ -117.18695, 32.74675 ], [ -117.18663, 32.7466 ], [ -117.18659, 32.74697 ], [ -117.18644, 32.74713 ], [ -117.18618, 32.74722 ], [ -117.18624, 32.74738 ], [ -117.18622, 32.74755 ], [ -117.18587, 32.74805 ], [ -117.18526, 32.74883 ], [ -117.18469, 32.74926 ], [ -117.18458, 32.74983 ], [ -117.18484, 32.74988 ], [ -117.1851, 32.75008 ], [ -117.18532, 32.75085 ], [ -117.18548, 32.75094 ], [ -117.18561, 32.75111 ], [ -117.18561, 32.75135 ], [ -117.18545, 32.75155 ], [ -117.18519, 32.75164 ], [ -117.18339, 32.75164 ], [ -117.18338, 32.75183 ], [ -117.18331, 32.75198 ], [ -117.18313, 32.75211 ], [ -117.18295, 32.75216 ], [ -117.18271, 32.75213 ], [ -117.18252, 32.75201 ], [ -117.18243, 32.75187 ], [ -117.18241, 32.75164 ], [ -117.18127, 32.75165 ], [ -117.18139, 32.75185 ], [ -117.18137, 32.75205 ], [ -117.18125, 32.75222 ], [ -117.181, 32.75233 ], [ -117.18076, 32.75232 ], [ -117.18036, 32.75218 ], [ -117.179, 32.75218 ], [ -117.179, 32.75235 ], [ -117.17934, 32.75238 ], [ -117.17959, 32.75256 ], [ -117.17965, 32.75276 ], [ -117.17957, 32.75299 ], [ -117.17944, 32.7531 ], [ -117.17926, 32.75316 ], [ -117.17818, 32.75318 ], [ -117.17819, 32.75377 ], [ -117.17811, 32.75396 ], [ -117.17785, 32.75413 ], [ -117.17734, 32.75415 ], [ -117.17735, 32.75442 ], [ -117.1773, 32.75458 ], [ -117.17718, 32.7547 ], [ -117.17697, 32.75479 ], [ -117.17678, 32.7548 ], [ -117.1766, 32.75474 ], [ -117.1764, 32.75452 ], [ -117.17635, 32.75342 ], [ -117.17623, 32.75337 ], [ -117.17603, 32.75343 ], [ -117.17584, 32.75342 ], [ -117.1755, 32.7532 ], [ -117.17551, 32.75366 ], [ -117.1754, 32.75388 ], [ -117.17492, 32.75413 ], [ -117.17464, 32.75417 ], [ -117.17464, 32.75431 ], [ -117.17496, 32.75434 ], [ -117.1752, 32.75453 ], [ -117.17526, 32.75472 ], [ -117.17518, 32.75495 ], [ -117.17496, 32.7551 ], [ -117.17464, 32.75513 ], [ -117.17461, 32.75547 ], [ -117.17441, 32.75569 ], [ -117.17423, 32.75575 ], [ -117.17404, 32.75574 ], [ -117.17387, 32.75568 ], [ -117.17373, 32.75555 ], [ -117.17356, 32.7558 ], [ -117.17325, 32.75589 ], [ -117.17298, 32.75582 ], [ -117.17282, 32.75568 ], [ -117.17277, 32.75552 ], [ -117.17276, 32.75513 ], [ -117.17228, 32.75512 ], [ -117.17209, 32.75507 ], [ -117.17192, 32.75494 ], [ -117.17185, 32.75475 ], [ -117.17194, 32.75434 ], [ -117.1721, 32.75414 ], [ -117.17227, 32.75407 ], [ -117.17246, 32.75405 ], [ -117.17277, 32.75419 ], [ -117.1729, 32.75397 ], [ -117.17321, 32.75385 ], [ -117.1732, 32.75372 ], [ -117.17299, 32.75367 ], [ -117.17282, 32.75354 ], [ -117.17275, 32.75339 ], [ -117.17274, 32.75321 ], [ -117.17239, 32.75314 ], [ -117.17226, 32.75302 ], [ -117.17219, 32.75287 ], [ -117.17219, 32.75271 ], [ -117.17226, 32.75256 ], [ -117.17248, 32.75241 ], [ -117.17275, 32.75238 ], [ -117.17275, 32.75222 ], [ -117.17145, 32.75226 ], [ -117.17116, 32.75217 ], [ -117.171, 32.75202 ], [ -117.17094, 32.75207 ], [ -117.17098, 32.75239 ], [ -117.17121, 32.75241 ], [ -117.17138, 32.75248 ], [ -117.1715, 32.75261 ], [ -117.17156, 32.7528 ], [ -117.17153, 32.75296 ], [ -117.17139, 32.75312 ], [ -117.17122, 32.7532 ], [ -117.17099, 32.75322 ], [ -117.17098, 32.75391 ], [ -117.17093, 32.75407 ], [ -117.17077, 32.75422 ], [ -117.17055, 32.75429 ], [ -117.17036, 32.75427 ], [ -117.17018, 32.75419 ], [ -117.16986, 32.75422 ], [ -117.16967, 32.75418 ], [ -117.16944, 32.75398 ], [ -117.16941, 32.75371 ], [ -117.16959, 32.75348 ], [ -117.16979, 32.75339 ], [ -117.17001, 32.75336 ], [ -117.17001, 32.75322 ], [ -117.16976, 32.75322 ], [ -117.1695, 32.75328 ], [ -117.169, 32.75325 ], [ -117.16877, 32.75311 ], [ -117.16864, 32.75286 ], [ -117.16864, 32.75267 ], [ -117.16874, 32.75249 ], [ -117.16888, 32.75238 ], [ -117.1691, 32.75233 ], [ -117.1691, 32.75227 ], [ -117.16891, 32.75222 ], [ -117.16876, 32.75212 ], [ -117.16865, 32.75186 ], [ -117.16868, 32.7517 ], [ -117.16879, 32.75157 ], [ -117.16909, 32.75145 ], [ -117.16909, 32.75079 ], [ -117.16888, 32.75099 ], [ -117.16843, 32.75111 ], [ -117.16837, 32.75136 ], [ -117.16812, 32.75155 ], [ -117.16826, 32.75169 ], [ -117.16831, 32.75188 ], [ -117.16827, 32.75204 ], [ -117.16813, 32.7522 ], [ -117.16782, 32.75229 ], [ -117.16736, 32.75218 ], [ -117.16707, 32.75227 ], [ -117.16692, 32.75239 ], [ -117.16641, 32.75257 ], [ -117.16582, 32.75298 ], [ -117.16632, 32.753 ], [ -117.16648, 32.75309 ], [ -117.16658, 32.75321 ], [ -117.16741, 32.75318 ], [ -117.16769, 32.75333 ], [ -117.16777, 32.75347 ], [ -117.16783, 32.75384 ], [ -117.16775, 32.75403 ], [ -117.1676, 32.75416 ], [ -117.16831, 32.75464 ], [ -117.16845, 32.75485 ], [ -117.16848, 32.75514 ], [ -117.16844, 32.7553 ], [ -117.16828, 32.7555 ], [ -117.16809, 32.75561 ], [ -117.1684, 32.75572 ], [ -117.1686, 32.75589 ], [ -117.16867, 32.75604 ], [ -117.16861, 32.75632 ], [ -117.16841, 32.75649 ], [ -117.16823, 32.75653 ], [ -117.16798, 32.75649 ], [ -117.16781, 32.75654 ], [ -117.16762, 32.75653 ], [ -117.16745, 32.75645 ], [ -117.16733, 32.75633 ], [ -117.167, 32.75564 ], [ -117.16658, 32.75564 ], [ -117.16674, 32.75589 ], [ -117.16675, 32.75616 ], [ -117.16668, 32.7563 ], [ -117.16698, 32.75645 ], [ -117.16709, 32.75672 ], [ -117.16708, 32.757 ], [ -117.167, 32.75719 ], [ -117.16682, 32.75732 ], [ -117.16659, 32.75737 ], [ -117.16628, 32.75727 ], [ -117.16611, 32.75702 ], [ -117.16561, 32.75698 ], [ -117.16536, 32.75687 ], [ -117.16522, 32.75662 ], [ -117.1653, 32.75634 ], [ -117.16511, 32.7564 ], [ -117.16488, 32.7564 ], [ -117.16458, 32.7563 ], [ -117.1644, 32.75606 ], [ -117.16439, 32.75562 ], [ -117.16371, 32.75559 ], [ -117.1633, 32.75538 ], [ -117.16318, 32.75526 ], [ -117.16274, 32.75524 ], [ -117.16272, 32.75572 ], [ -117.16255, 32.75605 ], [ -117.16245, 32.75653 ], [ -117.16221, 32.75672 ], [ -117.16202, 32.75676 ], [ -117.16184, 32.75673 ], [ -117.16151, 32.7565 ], [ -117.16142, 32.75628 ], [ -117.16121, 32.75632 ], [ -117.16103, 32.75629 ], [ -117.16083, 32.75618 ], [ -117.16072, 32.75598 ], [ -117.16044, 32.75602 ], [ -117.16018, 32.75593 ], [ -117.15989, 32.75567 ], [ -117.15986, 32.75539 ], [ -117.15972, 32.7553 ], [ -117.15962, 32.75516 ], [ -117.15962, 32.75492 ], [ -117.15912, 32.75482 ], [ -117.15882, 32.75465 ], [ -117.15865, 32.75429 ], [ -117.15864, 32.75407 ], [ -117.15871, 32.75391 ], [ -117.15882, 32.75379 ], [ -117.15881, 32.75353 ], [ -117.15886, 32.75338 ], [ -117.15911, 32.75318 ], [ -117.15926, 32.75298 ], [ -117.15952, 32.75289 ], [ -117.16019, 32.75294 ], [ -117.16052, 32.75286 ], [ -117.16075, 32.75293 ], [ -117.16092, 32.75309 ], [ -117.16091, 32.7523 ], [ -117.16024, 32.75232 ], [ -117.16016, 32.75245 ], [ -117.16001, 32.75256 ], [ -117.15969, 32.75261 ], [ -117.15951, 32.75255 ], [ -117.15937, 32.75245 ], [ -117.15922, 32.75207 ], [ -117.15925, 32.75183 ], [ -117.15943, 32.75165 ], [ -117.15975, 32.75152 ], [ -117.16034, 32.75148 ], [ -117.16042, 32.75119 ], [ -117.16038, 32.75103 ], [ -117.16008, 32.75114 ], [ -117.1594, 32.75115 ], [ -117.15918, 32.75126 ], [ -117.15892, 32.7513 ], [ -117.15855, 32.75123 ], [ -117.15835, 32.75108 ], [ -117.15812, 32.75136 ], [ -117.15779, 32.75145 ], [ -117.15762, 32.75164 ], [ -117.15735, 32.75172 ], [ -117.15712, 32.75168 ], [ -117.15697, 32.75158 ], [ -117.15686, 32.75141 ], [ -117.15685, 32.75123 ], [ -117.15657, 32.75111 ], [ -117.15645, 32.75087 ], [ -117.15611, 32.75092 ], [ -117.15593, 32.75086 ], [ -117.15581, 32.75077 ], [ -117.15405, 32.75103 ], [ -117.15405, 32.7513 ], [ -117.15499, 32.75131 ], [ -117.15522, 32.75138 ], [ -117.15539, 32.75156 ], [ -117.15541, 32.75183 ], [ -117.15564, 32.75193 ], [ -117.15579, 32.75213 ], [ -117.15579, 32.75237 ], [ -117.15562, 32.75256 ], [ -117.15536, 32.75265 ], [ -117.15477, 32.75264 ], [ -117.15477, 32.75284 ], [ -117.15555, 32.75284 ], [ -117.15585, 32.75272 ], [ -117.15675, 32.75271 ], [ -117.15697, 32.75278 ], [ -117.15714, 32.75293 ], [ -117.1572, 32.75312 ], [ -117.15714, 32.75331 ], [ -117.15702, 32.75344 ], [ -117.15687, 32.75351 ], [ -117.15682, 32.75369 ], [ -117.15668, 32.75386 ], [ -117.15653, 32.75395 ], [ -117.15637, 32.75398 ], [ -117.15637, 32.75412 ], [ -117.15725, 32.75413 ], [ -117.15746, 32.75422 ], [ -117.15758, 32.75434 ], [ -117.15763, 32.75462 ], [ -117.15756, 32.75476 ], [ -117.15741, 32.75488 ], [ -117.15737, 32.75533 ], [ -117.15723, 32.75549 ], [ -117.15703, 32.75558 ], [ -117.15721, 32.75568 ], [ -117.15754, 32.75599 ], [ -117.15776, 32.75605 ], [ -117.15793, 32.75619 ], [ -117.158, 32.75646 ], [ -117.15789, 32.75668 ], [ -117.15769, 32.7568 ], [ -117.1575, 32.75683 ], [ -117.15725, 32.75678 ], [ -117.15699, 32.75667 ], [ -117.15655, 32.75631 ], [ -117.15616, 32.75614 ], [ -117.1559, 32.75583 ], [ -117.15558, 32.75571 ], [ -117.15545, 32.75553 ], [ -117.15542, 32.75534 ], [ -117.15522, 32.75532 ], [ -117.15503, 32.7552 ], [ -117.15492, 32.75502 ], [ -117.15491, 32.7547 ], [ -117.15424, 32.75469 ], [ -117.15369, 32.75451 ], [ -117.15203, 32.75352 ], [ -117.15154, 32.75308 ], [ -117.15142, 32.75287 ], [ -117.15147, 32.75332 ], [ -117.15194, 32.75356 ], [ -117.15209, 32.75371 ], [ -117.15214, 32.75391 ], [ -117.15208, 32.75409 ], [ -117.15223, 32.75425 ], [ -117.15227, 32.75441 ], [ -117.15223, 32.7546 ], [ -117.15212, 32.75473 ], [ -117.15191, 32.75483 ], [ -117.15168, 32.75483 ], [ -117.15174, 32.75533 ], [ -117.15174, 32.75612 ], [ -117.15201, 32.75594 ], [ -117.15234, 32.75595 ], [ -117.15286, 32.75524 ], [ -117.15308, 32.75516 ], [ -117.15331, 32.75517 ], [ -117.15348, 32.75525 ], [ -117.1536, 32.75538 ], [ -117.15363, 32.75566 ], [ -117.15285, 32.75686 ], [ -117.153, 32.75691 ], [ -117.15428, 32.75641 ], [ -117.15455, 32.75638 ], [ -117.15492, 32.75646 ], [ -117.15524, 32.75672 ], [ -117.15535, 32.75698 ], [ -117.15526, 32.75721 ], [ -117.15508, 32.75734 ], [ -117.1549, 32.75738 ], [ -117.15467, 32.75735 ], [ -117.15448, 32.75724 ], [ -117.15376, 32.75752 ], [ -117.15389, 32.75781 ], [ -117.15393, 32.75819 ], [ -117.1538, 32.75865 ], [ -117.15357, 32.75896 ], [ -117.15327, 32.7592 ], [ -117.15286, 32.75938 ], [ -117.15252, 32.75946 ], [ -117.15175, 32.75947 ], [ -117.15174, 32.75978 ], [ -117.15164, 32.75996 ], [ -117.1514, 32.76009 ], [ -117.15113, 32.76011 ], [ -117.15112, 32.76106 ], [ -117.15103, 32.7612 ], [ -117.15089, 32.7613 ], [ -117.15052, 32.76135 ], [ -117.15052, 32.76174 ], [ -117.15042, 32.76192 ], [ -117.15008, 32.76214 ], [ -117.14955, 32.7623 ], [ -117.14906, 32.76238 ], [ -117.14906, 32.7626 ], [ -117.14889, 32.7628 ], [ -117.14878, 32.76311 ], [ -117.14854, 32.76332 ], [ -117.14804, 32.76353 ], [ -117.14796, 32.76371 ], [ -117.14778, 32.76385 ], [ -117.14755, 32.7639 ], [ -117.14737, 32.76387 ], [ -117.14718, 32.76375 ], [ -117.14707, 32.76355 ], [ -117.14655, 32.76347 ], [ -117.14638, 32.76354 ], [ -117.14629, 32.76401 ], [ -117.1462, 32.76416 ], [ -117.14601, 32.76428 ], [ -117.14573, 32.7643 ], [ -117.14551, 32.76422 ], [ -117.14537, 32.76406 ], [ -117.14533, 32.7639 ], [ -117.14536, 32.76362 ], [ -117.14435, 32.76363 ], [ -117.14405, 32.76351 ], [ -117.14392, 32.76335 ], [ -117.1439, 32.76319 ], [ -117.14397, 32.763 ], [ -117.14411, 32.76288 ], [ -117.14336, 32.7629 ], [ -117.14301, 32.763 ], [ -117.14299, 32.76252 ], [ -117.14312, 32.76249 ], [ -117.14628, 32.76247 ], [ -117.14625, 32.75592 ], [ -117.14637, 32.75524 ], [ -117.14632, 32.74667 ], [ -117.14643, 32.74637 ], [ -117.14725, 32.74538 ], [ -117.14748, 32.74486 ], [ -117.14753, 32.74458 ], [ -117.14753, 32.74184 ], [ -117.14965, 32.74183 ], [ -117.14965, 32.74114 ], [ -117.1526, 32.74112 ], [ -117.15252, 32.74131 ], [ -117.15302, 32.74131 ], [ -117.15333, 32.74118 ], [ -117.15421, 32.74119 ], [ -117.15441, 32.74124 ], [ -117.15465, 32.74137 ], [ -117.15489, 32.7417 ], [ -117.15529, 32.74166 ], [ -117.15506, 32.74106 ], [ -117.15949, 32.74104 ], [ -117.15941, 32.74055 ], [ -117.15941, 32.73726 ], [ -117.15973, 32.73733 ], [ -117.15991, 32.73751 ], [ -117.15994, 32.73771 ], [ -117.15986, 32.73791 ], [ -117.15986, 32.7383 ], [ -117.16085, 32.73831 ], [ -117.16103, 32.73837 ], [ -117.16116, 32.73848 ], [ -117.16124, 32.73867 ], [ -117.16124, 32.73899 ], [ -117.16114, 32.73917 ], [ -117.16093, 32.7393 ], [ -117.16093, 32.73936 ], [ -117.1614, 32.73937 ], [ -117.16169, 32.73951 ], [ -117.16179, 32.73971 ], [ -117.1618, 32.74025 ], [ -117.16205, 32.7401 ], [ -117.16238, 32.74011 ], [ -117.16257, 32.74023 ], [ -117.16266, 32.74039 ], [ -117.1632, 32.74039 ], [ -117.16345, 32.7405 ], [ -117.16358, 32.74071 ], [ -117.16359, 32.74106 ], [ -117.16447, 32.74106 ], [ -117.16476, 32.7412 ], [ -117.16487, 32.74142 ], [ -117.16489, 32.74289 ], [ -117.16619, 32.74288 ], [ -117.16623, 32.74272 ], [ -117.16637, 32.74256 ], [ -117.16659, 32.74247 ], [ -117.16682, 32.74248 ], [ -117.16684, 32.74199 ], [ -117.16726, 32.74124 ], [ -117.16781, 32.74063 ], [ -117.16824, 32.74037 ], [ -117.16847, 32.74032 ], [ -117.16905, 32.74031 ], [ -117.1693, 32.74039 ], [ -117.16943, 32.74051 ], [ -117.16953, 32.74072 ], [ -117.17013, 32.74134 ], [ -117.17039, 32.7412 ], [ -117.17069, 32.74121 ], [ -117.1709, 32.74129 ], [ -117.17107, 32.74149 ], [ -117.17132, 32.74164 ], [ -117.17185, 32.74181 ], [ -117.17219, 32.74168 ], [ -117.1725, 32.74177 ], [ -117.17265, 32.74192 ], [ -117.1727, 32.74212 ], [ -117.17254, 32.74246 ], [ -117.17229, 32.7426 ], [ -117.17241, 32.74287 ], [ -117.1724, 32.74313 ], [ -117.17233, 32.74327 ], [ -117.17254, 32.7433 ], [ -117.1727, 32.74339 ], [ -117.17282, 32.74356 ], [ -117.17284, 32.74372 ], [ -117.17279, 32.74387 ], [ -117.17268, 32.74399 ], [ -117.17278, 32.74421 ], [ -117.17274, 32.74441 ], [ -117.17251, 32.74461 ], [ -117.1722, 32.74465 ], [ -117.17226, 32.74481 ], [ -117.17223, 32.74501 ], [ -117.17246, 32.74509 ], [ -117.17261, 32.74524 ], [ -117.17287, 32.74522 ], [ -117.17312, 32.74533 ], [ -117.17324, 32.7455 ], [ -117.17327, 32.7458 ], [ -117.17394, 32.74578 ], [ -117.17392, 32.74551 ], [ -117.17385, 32.74532 ], [ -117.17387, 32.74516 ], [ -117.17403, 32.74496 ], [ -117.17443, 32.74482 ], [ -117.17444, 32.74393 ], [ -117.17454, 32.74374 ], [ -117.17469, 32.74364 ], [ -117.17492, 32.74359 ], [ -117.17515, 32.74364 ], [ -117.17532, 32.74378 ], [ -117.17541, 32.74399 ], [ -117.17679, 32.74401 ], [ -117.17745, 32.74439 ], [ -117.17747, 32.74413 ], [ -117.17764, 32.74394 ], [ -117.17782, 32.74388 ], [ -117.17801, 32.74388 ], [ -117.17832, 32.74404 ], [ -117.17868, 32.74361 ], [ -117.17837, 32.74343 ], [ -117.17833, 32.74362 ], [ -117.17822, 32.74375 ], [ -117.17801, 32.74385 ], [ -117.17782, 32.74386 ], [ -117.17764, 32.74381 ], [ -117.1774, 32.74363 ], [ -117.17714, 32.74352 ], [ -117.17688, 32.74361 ], [ -117.17665, 32.74359 ], [ -117.17646, 32.74347 ], [ -117.17636, 32.74329 ], [ -117.1764, 32.74301 ], [ -117.17711, 32.74219 ], [ -117.17723, 32.74187 ], [ -117.17719, 32.74169 ], [ -117.17699, 32.74162 ], [ -117.17682, 32.74147 ], [ -117.1767, 32.74118 ], [ -117.17646, 32.74112 ], [ -117.17629, 32.74098 ], [ -117.17623, 32.74073 ], [ -117.17602, 32.74047 ], [ -117.17599, 32.74027 ], [ -117.17613, 32.74003 ], [ -117.17617, 32.73979 ], [ -117.17633, 32.73963 ], [ -117.17626, 32.73943 ], [ -117.17631, 32.73923 ], [ -117.17642, 32.7391 ], [ -117.17678, 32.73888 ], [ -117.17642, 32.73846 ], [ -117.17637, 32.73831 ], [ -117.1764, 32.73815 ], [ -117.1765, 32.73801 ], [ -117.17665, 32.73791 ], [ -117.17699, 32.73789 ], [ -117.17855, 32.73964 ], [ -117.18033, 32.74151 ], [ -117.18181, 32.74226 ], [ -117.18189, 32.74221 ], [ -117.18297, 32.74272 ], [ -117.18288, 32.74277 ], [ -117.18376, 32.74322 ], [ -117.18447, 32.74373 ], [ -117.18479, 32.74363 ], [ -117.18517, 32.74375 ], [ -117.18536, 32.74397 ], [ -117.18536, 32.74422 ], [ -117.18551, 32.74429 ], [ -117.1857, 32.74399 ], [ -117.18656, 32.74439 ], [ -117.18672, 32.74468 ], [ -117.18683, 32.74473 ], [ -117.18704, 32.74469 ], [ -117.18722, 32.74472 ], [ -117.18742, 32.74484 ], [ -117.18752, 32.74504 ], [ -117.1878, 32.74517 ], [ -117.18804, 32.74509 ], [ -117.18939, 32.74572 ], [ -117.18966, 32.74594 ], [ -117.18969, 32.74622 ], [ -117.19035, 32.74652 ], [ -117.19055, 32.74646 ], [ -117.19078, 32.74649 ], [ -117.19152, 32.74689 ], [ -117.19159, 32.74698 ], [ -117.1907, 32.74794 ], [ -117.19062, 32.7479 ], [ -117.19024, 32.74836 ], [ -117.19032, 32.7484 ], [ -117.18989, 32.7489 ], [ -117.18985, 32.74866 ], [ -117.18959, 32.74862 ], [ -117.18909, 32.74831 ], [ -117.18906, 32.74838 ], [ -117.1898, 32.749 ], [ -117.18948, 32.74936 ], [ -117.18949, 32.74944 ], [ -117.19149, 32.75071 ] ], [ [ -117.15889, 32.749 ], [ -117.15888, 32.74914 ], [ -117.15893, 32.749 ], [ -117.15889, 32.749 ] ], [ [ -117.15896, 32.74779 ], [ -117.159, 32.74737 ], [ -117.15889, 32.74738 ], [ -117.15889, 32.74779 ], [ -117.15896, 32.74779 ] ], [ [ -117.15887, 32.74367 ], [ -117.15899, 32.74366 ], [ -117.15899, 32.74178 ], [ -117.15887, 32.74175 ], [ -117.15887, 32.74292 ], [ -117.15883, 32.74308 ], [ -117.15861, 32.74328 ], [ -117.15843, 32.74333 ], [ -117.15824, 32.74331 ], [ -117.15804, 32.74321 ], [ -117.15792, 32.74304 ], [ -117.1579, 32.74239 ], [ -117.15755, 32.74218 ], [ -117.15743, 32.74201 ], [ -117.15742, 32.74181 ], [ -117.15753, 32.74163 ], [ -117.15757, 32.74136 ], [ -117.15731, 32.74153 ], [ -117.15697, 32.74155 ], [ -117.15672, 32.74142 ], [ -117.15659, 32.74115 ], [ -117.15647, 32.74115 ], [ -117.15647, 32.74153 ], [ -117.15636, 32.74174 ], [ -117.15647, 32.74192 ], [ -117.15649, 32.74208 ], [ -117.15646, 32.74231 ], [ -117.15632, 32.74253 ], [ -117.15611, 32.7427 ], [ -117.15592, 32.74279 ], [ -117.15561, 32.74307 ], [ -117.1553, 32.74318 ], [ -117.15473, 32.74352 ], [ -117.15431, 32.74367 ], [ -117.15381, 32.74374 ], [ -117.15384, 32.74395 ], [ -117.15504, 32.74395 ], [ -117.15525, 32.74401 ], [ -117.15546, 32.74414 ], [ -117.1556, 32.74442 ], [ -117.15553, 32.74474 ], [ -117.15519, 32.74508 ], [ -117.15479, 32.74523 ], [ -117.15484, 32.74536 ], [ -117.15505, 32.74518 ], [ -117.15533, 32.74513 ], [ -117.15559, 32.74523 ], [ -117.15574, 32.74542 ], [ -117.15598, 32.74543 ], [ -117.15616, 32.74549 ], [ -117.15632, 32.74564 ], [ -117.15638, 32.74579 ], [ -117.15636, 32.74595 ], [ -117.15621, 32.74618 ], [ -117.15671, 32.74637 ], [ -117.15671, 32.7455 ], [ -117.15676, 32.74535 ], [ -117.15686, 32.74523 ], [ -117.15672, 32.74496 ], [ -117.15676, 32.74407 ], [ -117.15692, 32.74339 ], [ -117.15705, 32.74327 ], [ -117.15723, 32.7432 ], [ -117.15742, 32.7432 ], [ -117.1576, 32.74326 ], [ -117.1578, 32.74348 ], [ -117.15784, 32.74384 ], [ -117.1579, 32.74385 ], [ -117.15793, 32.74362 ], [ -117.15802, 32.74348 ], [ -117.15831, 32.74334 ], [ -117.15863, 32.74339 ], [ -117.15878, 32.74349 ], [ -117.15887, 32.74367 ] ], [ [ -117.16816, 32.74938 ], [ -117.1681, 32.7494 ], [ -117.16816, 32.7494 ], [ -117.16816, 32.74938 ] ], [ [ -117.16813, 32.7478 ], [ -117.16812, 32.74705 ], [ -117.16777, 32.74728 ], [ -117.1672, 32.74732 ], [ -117.16718, 32.7476 ], [ -117.16706, 32.74777 ], [ -117.16686, 32.74788 ], [ -117.1666, 32.74789 ], [ -117.16641, 32.74811 ], [ -117.16608, 32.74817 ], [ -117.16603, 32.74832 ], [ -117.16633, 32.74834 ], [ -117.16656, 32.74822 ], [ -117.16696, 32.7482 ], [ -117.16707, 32.74796 ], [ -117.1673, 32.74782 ], [ -117.16813, 32.7478 ] ], [ [ -117.16803, 32.74497 ], [ -117.16879, 32.74479 ], [ -117.16908, 32.74481 ], [ -117.16908, 32.74466 ], [ -117.16872, 32.74459 ], [ -117.16853, 32.74437 ], [ -117.16848, 32.74298 ], [ -117.16834, 32.74387 ], [ -117.1682, 32.74406 ], [ -117.16803, 32.74417 ], [ -117.16803, 32.74497 ] ], [ [ -117.16798, 32.74195 ], [ -117.16793, 32.74195 ], [ -117.16785, 32.7421 ], [ -117.16794, 32.742 ], [ -117.16798, 32.74195 ] ], [ [ -117.18141, 32.75076 ], [ -117.18121, 32.75072 ], [ -117.18103, 32.75059 ], [ -117.18078, 32.75001 ], [ -117.1808, 32.74968 ], [ -117.18111, 32.74917 ], [ -117.18116, 32.7486 ], [ -117.18129, 32.74836 ], [ -117.18145, 32.7482 ], [ -117.18171, 32.74808 ], [ -117.18199, 32.74809 ], [ -117.18219, 32.74819 ], [ -117.18229, 32.74833 ], [ -117.18232, 32.74853 ], [ -117.18222, 32.74873 ], [ -117.18241, 32.74889 ], [ -117.18242, 32.74827 ], [ -117.18219, 32.74808 ], [ -117.18215, 32.74784 ], [ -117.18224, 32.74766 ], [ -117.18281, 32.74701 ], [ -117.18267, 32.74676 ], [ -117.18273, 32.74652 ], [ -117.18293, 32.74635 ], [ -117.18316, 32.7463 ], [ -117.18339, 32.74635 ], [ -117.1837, 32.74653 ], [ -117.18374, 32.74625 ], [ -117.18386, 32.74612 ], [ -117.18402, 32.74604 ], [ -117.18337, 32.74564 ], [ -117.18334, 32.7458 ], [ -117.18322, 32.74597 ], [ -117.18305, 32.74606 ], [ -117.18283, 32.74608 ], [ -117.18282, 32.74629 ], [ -117.1827, 32.74646 ], [ -117.1825, 32.74656 ], [ -117.18225, 32.74657 ], [ -117.18227, 32.74675 ], [ -117.18218, 32.74693 ], [ -117.182, 32.74706 ], [ -117.18178, 32.7471 ], [ -117.18181, 32.7473 ], [ -117.1817, 32.74752 ], [ -117.18146, 32.74765 ], [ -117.18122, 32.74766 ], [ -117.18121, 32.74787 ], [ -117.18109, 32.74804 ], [ -117.18093, 32.74813 ], [ -117.18074, 32.74816 ], [ -117.18041, 32.74805 ], [ -117.18048, 32.74838 ], [ -117.18042, 32.74862 ], [ -117.18025, 32.74888 ], [ -117.17994, 32.74914 ], [ -117.17952, 32.74977 ], [ -117.17912, 32.74997 ], [ -117.17863, 32.74998 ], [ -117.17776, 32.75025 ], [ -117.17731, 32.75029 ], [ -117.17731, 32.75044 ], [ -117.17802, 32.75044 ], [ -117.17819, 32.75019 ], [ -117.17836, 32.75011 ], [ -117.17855, 32.75009 ], [ -117.17881, 32.75018 ], [ -117.17898, 32.75042 ], [ -117.17928, 32.75044 ], [ -117.1795, 32.75052 ], [ -117.17986, 32.75082 ], [ -117.1824, 32.75082 ], [ -117.1824, 32.75076 ], [ -117.18141, 32.75076 ] ], [ [ -117.18411, 32.74476 ], [ -117.18401, 32.74458 ], [ -117.18384, 32.74469 ], [ -117.18403, 32.74484 ], [ -117.18411, 32.74507 ], [ -117.18433, 32.74521 ], [ -117.18447, 32.74514 ], [ -117.18411, 32.74476 ] ], [ [ -117.18754, 32.74874 ], [ -117.1876, 32.74867 ], [ -117.18755, 32.74863 ], [ -117.18754, 32.74874 ] ], [ [ -117.1877, 32.7471 ], [ -117.1877, 32.74722 ], [ -117.18784, 32.74732 ], [ -117.18787, 32.74719 ], [ -117.1877, 32.7471 ] ], [ [ -117.18396, 32.74688 ], [ -117.18405, 32.74687 ], [ -117.18393, 32.74679 ], [ -117.18395, 32.74684 ], [ -117.18396, 32.74688 ] ], [ [ -117.1779, 32.74905 ], [ -117.17789, 32.74877 ], [ -117.17732, 32.74873 ], [ -117.17682, 32.7484 ], [ -117.1767, 32.74823 ], [ -117.1767, 32.74799 ], [ -117.17686, 32.74779 ], [ -117.17708, 32.74771 ], [ -117.17736, 32.74773 ], [ -117.17769, 32.74794 ], [ -117.17779, 32.74794 ], [ -117.178, 32.74772 ], [ -117.17825, 32.74762 ], [ -117.17848, 32.74761 ], [ -117.17875, 32.7477 ], [ -117.17862, 32.74754 ], [ -117.17854, 32.74726 ], [ -117.17855, 32.7471 ], [ -117.17866, 32.74689 ], [ -117.17637, 32.74772 ], [ -117.1748, 32.74857 ], [ -117.17408, 32.74917 ], [ -117.1744, 32.74923 ], [ -117.17453, 32.74934 ], [ -117.17461, 32.74949 ], [ -117.1772, 32.74947 ], [ -117.17753, 32.74945 ], [ -117.17799, 32.7493 ], [ -117.1779, 32.74905 ] ], [ [ -117.1786, 32.74591 ], [ -117.17903, 32.74553 ], [ -117.17839, 32.74514 ], [ -117.17833, 32.7454 ], [ -117.17764, 32.7462 ], [ -117.17775, 32.74635 ], [ -117.17827, 32.74612 ], [ -117.1786, 32.74591 ] ], [ [ -117.17887, 32.74259 ], [ -117.17886, 32.74272 ], [ -117.17911, 32.74286 ], [ -117.17887, 32.74259 ] ], [ [ -117.17613, 32.74496 ], [ -117.17667, 32.74493 ], [ -117.17648, 32.74482 ], [ -117.17541, 32.74482 ], [ -117.17585, 32.74484 ], [ -117.17613, 32.74496 ] ], [ [ -117.17037, 32.74356 ], [ -117.17009, 32.74342 ], [ -117.16997, 32.7432 ], [ -117.17004, 32.74293 ], [ -117.17027, 32.74277 ], [ -117.16866, 32.74113 ], [ -117.16847, 32.74124 ], [ -117.16858, 32.74139 ], [ -117.16862, 32.74154 ], [ -117.16858, 32.7417 ], [ -117.16846, 32.74184 ], [ -117.16865, 32.74193 ], [ -117.16877, 32.74206 ], [ -117.16882, 32.74226 ], [ -117.16876, 32.74243 ], [ -117.16896, 32.7424 ], [ -117.16915, 32.74245 ], [ -117.1693, 32.74254 ], [ -117.16942, 32.74273 ], [ -117.16946, 32.74289 ], [ -117.16948, 32.74384 ], [ -117.17037, 32.74388 ], [ -117.1708, 32.74386 ], [ -117.17067, 32.74356 ], [ -117.17037, 32.74356 ] ], [ [ -117.16886, 32.74597 ], [ -117.16876, 32.74591 ], [ -117.16876, 32.74606 ], [ -117.1688, 32.74602 ], [ -117.16886, 32.74597 ] ], [ [ -117.16556, 32.75603 ], [ -117.16552, 32.75614 ], [ -117.16547, 32.75621 ], [ -117.16556, 32.75618 ], [ -117.16556, 32.75603 ] ], [ [ -117.16603, 32.75481 ], [ -117.16586, 32.75458 ], [ -117.16586, 32.75431 ], [ -117.16562, 32.75418 ], [ -117.16562, 32.75481 ], [ -117.16603, 32.75481 ] ], [ [ -117.16488, 32.74884 ], [ -117.16462, 32.74879 ], [ -117.1644, 32.74865 ], [ -117.1644, 32.74879 ], [ -117.16467, 32.74887 ], [ -117.16485, 32.74908 ], [ -117.1651, 32.74904 ], [ -117.16511, 32.74898 ], [ -117.16488, 32.74884 ] ], [ [ -117.16449, 32.74402 ], [ -117.16436, 32.74401 ], [ -117.16436, 32.74404 ], [ -117.1644, 32.74403 ], [ -117.16449, 32.74402 ] ], [ [ -117.16625, 32.744 ], [ -117.16641, 32.74385 ], [ -117.16658, 32.74379 ], [ -117.16677, 32.74379 ], [ -117.16695, 32.74386 ], [ -117.16691, 32.74369 ], [ -117.16659, 32.74366 ], [ -117.16603, 32.7437 ], [ -117.16601, 32.74395 ], [ -117.16586, 32.74415 ], [ -117.16564, 32.74424 ], [ -117.16533, 32.74421 ], [ -117.16529, 32.74425 ], [ -117.16535, 32.74441 ], [ -117.16537, 32.74481 ], [ -117.16543, 32.74498 ], [ -117.16537, 32.74527 ], [ -117.16559, 32.74523 ], [ -117.16559, 32.74498 ], [ -117.16576, 32.74476 ], [ -117.16595, 32.74467 ], [ -117.16619, 32.74465 ], [ -117.16619, 32.74415 ], [ -117.16625, 32.744 ] ], [ [ -117.1651, 32.74548 ], [ -117.16492, 32.74553 ], [ -117.16492, 32.74596 ], [ -117.16508, 32.74596 ], [ -117.1651, 32.74548 ] ], [ [ -117.16123, 32.75546 ], [ -117.16103, 32.7553 ], [ -117.16097, 32.75517 ], [ -117.16098, 32.75554 ], [ -117.16123, 32.75546 ] ], [ [ -117.14831, 32.74601 ], [ -117.1486, 32.74601 ], [ -117.14867, 32.7458 ], [ -117.14842, 32.7458 ], [ -117.1483, 32.74595 ], [ -117.14831, 32.74601 ] ], [ [ -117.149, 32.7456 ], [ -117.1492, 32.74561 ], [ -117.14931, 32.74548 ], [ -117.14947, 32.7454 ], [ -117.14979, 32.74539 ], [ -117.14982, 32.74522 ], [ -117.14996, 32.74506 ], [ -117.15013, 32.74498 ], [ -117.15037, 32.74496 ], [ -117.1504, 32.74468 ], [ -117.15019, 32.74474 ], [ -117.14972, 32.74474 ], [ -117.1497, 32.74498 ], [ -117.14958, 32.74515 ], [ -117.14938, 32.74526 ], [ -117.14905, 32.74528 ], [ -117.14907, 32.74544 ], [ -117.149, 32.7456 ] ], [ [ -117.15217, 32.7432 ], [ -117.15226, 32.74279 ], [ -117.15238, 32.74266 ], [ -117.15171, 32.74266 ], [ -117.1517, 32.74298 ], [ -117.15196, 32.74302 ], [ -117.15217, 32.7432 ] ], [ [ -117.15331, 32.74273 ], [ -117.15372, 32.74265 ], [ -117.15308, 32.74265 ], [ -117.15331, 32.74273 ] ], [ [ -117.15587, 32.74881 ], [ -117.15581, 32.74882 ], [ -117.15578, 32.74908 ], [ -117.15569, 32.74928 ], [ -117.15515, 32.74991 ], [ -117.15588, 32.74982 ], [ -117.15587, 32.74881 ] ], [ [ -117.15627, 32.74764 ], [ -117.15648, 32.74753 ], [ -117.15671, 32.74752 ], [ -117.15671, 32.74728 ], [ -117.15626, 32.7471 ], [ -117.15626, 32.74754 ], [ -117.15615, 32.74781 ], [ -117.15627, 32.74764 ] ], [ [ -117.1579, 32.74617 ], [ -117.1579, 32.74556 ], [ -117.15768, 32.74555 ], [ -117.15769, 32.74617 ], [ -117.1579, 32.74617 ] ], [ [ -117.15074, 32.74445 ], [ -117.15074, 32.74422 ], [ -117.15063, 32.74422 ], [ -117.15058, 32.7445 ], [ -117.15074, 32.74445 ] ], [ [ -117.15073, 32.74266 ], [ -117.14971, 32.74266 ], [ -117.14971, 32.74288 ], [ -117.15073, 32.74288 ], [ -117.15073, 32.74266 ] ], [ [ -117.15073, 32.74184 ], [ -117.15073, 32.74156 ], [ -117.15063, 32.74156 ], [ -117.15062, 32.74184 ], [ -117.15073, 32.74184 ] ], [ [ -117.15307, 32.75124 ], [ -117.1528, 32.75131 ], [ -117.15307, 32.75131 ], [ -117.15307, 32.75124 ] ], [ [ -117.14828, 32.75621 ], [ -117.14757, 32.75622 ], [ -117.14742, 32.75642 ], [ -117.14728, 32.75652 ], [ -117.1471, 32.75657 ], [ -117.14675, 32.75657 ], [ -117.14675, 32.7568 ], [ -117.14829, 32.7568 ], [ -117.14828, 32.75621 ] ] ], [ [ [ -117.1734, 32.73427 ], [ -117.17302, 32.73438 ], [ -117.17278, 32.73437 ], [ -117.17254, 32.73425 ], [ -117.17243, 32.73403 ], [ -117.17214, 32.73406 ], [ -117.17196, 32.73401 ], [ -117.17184, 32.73391 ], [ -117.17157, 32.73392 ], [ -117.17136, 32.73384 ], [ -117.17124, 32.73371 ], [ -117.17113, 32.73349 ], [ -117.1705, 32.73205 ], [ -117.17046, 32.73206 ], [ -117.17027, 32.73275 ], [ -117.1701, 32.73294 ], [ -117.1699, 32.73301 ], [ -117.16967, 32.73301 ], [ -117.16855, 32.73334 ], [ -117.16835, 32.73335 ], [ -117.16813, 32.73327 ], [ -117.16799, 32.73312 ], [ -117.16769, 32.73238 ], [ -117.16776, 32.73209 ], [ -117.16756, 32.73196 ], [ -117.16746, 32.73177 ], [ -117.16717, 32.73177 ], [ -117.16714, 32.73217 ], [ -117.16703, 32.73231 ], [ -117.16688, 32.7324 ], [ -117.16669, 32.73243 ], [ -117.1665, 32.7324 ], [ -117.16634, 32.73231 ], [ -117.16623, 32.73217 ], [ -117.16614, 32.73231 ], [ -117.16599, 32.73242 ], [ -117.16581, 32.73246 ], [ -117.1655, 32.73245 ], [ -117.16528, 32.73237 ], [ -117.16516, 32.73224 ], [ -117.16511, 32.73209 ], [ -117.1651, 32.73178 ], [ -117.16376, 32.73175 ], [ -117.16357, 32.73163 ], [ -117.16347, 32.73149 ], [ -117.16345, 32.73105 ], [ -117.16319, 32.73103 ], [ -117.16302, 32.73095 ], [ -117.16262, 32.73094 ], [ -117.16238, 32.73083 ], [ -117.16223, 32.7306 ], [ -117.1622, 32.7303 ], [ -117.16228, 32.7301 ], [ -117.16246, 32.72996 ], [ -117.16232, 32.72986 ], [ -117.16222, 32.7297 ], [ -117.162, 32.72969 ], [ -117.16183, 32.72963 ], [ -117.16167, 32.72949 ], [ -117.16161, 32.72929 ], [ -117.16137, 32.72927 ], [ -117.16121, 32.72918 ], [ -117.16108, 32.72897 ], [ -117.16107, 32.72866 ], [ -117.16022, 32.72866 ], [ -117.15995, 32.72857 ], [ -117.15978, 32.72833 ], [ -117.15978, 32.72763 ], [ -117.15941, 32.72763 ], [ -117.15945, 32.72406 ], [ -117.15933, 32.72299 ], [ -117.16022, 32.72279 ], [ -117.16114, 32.72273 ], [ -117.16205, 32.72278 ], [ -117.16296, 32.72301 ], [ -117.16387, 32.72338 ], [ -117.16426, 32.72362 ], [ -117.16438, 32.72372 ], [ -117.16438, 32.72467 ], [ -117.16482, 32.7247 ], [ -117.16511, 32.72485 ], [ -117.1654, 32.72521 ], [ -117.16541, 32.72559 ], [ -117.1655, 32.72573 ], [ -117.16636, 32.72573 ], [ -117.16704, 32.72647 ], [ -117.16673, 32.72654 ], [ -117.16622, 32.72655 ], [ -117.16623, 32.72679 ], [ -117.16674, 32.7268 ], [ -117.16723, 32.72668 ], [ -117.16783, 32.72735 ], [ -117.16757, 32.72745 ], [ -117.16765, 32.72762 ], [ -117.16804, 32.7277 ], [ -117.16851, 32.72813 ], [ -117.16887, 32.72864 ], [ -117.1694, 32.72924 ], [ -117.16946, 32.72938 ], [ -117.16959, 32.72944 ], [ -117.16974, 32.72963 ], [ -117.16976, 32.72985 ], [ -117.16965, 32.73003 ], [ -117.1697, 32.73013 ], [ -117.1699, 32.73011 ], [ -117.17016, 32.73017 ], [ -117.17137, 32.73159 ], [ -117.17363, 32.73413 ], [ -117.1734, 32.73427 ] ] ], [ [ [ -117.14764, 32.76499 ], [ -117.14777, 32.76482 ], [ -117.14798, 32.76473 ], [ -117.14824, 32.76474 ], [ -117.14911, 32.76449 ], [ -117.1493, 32.7645 ], [ -117.14949, 32.76459 ], [ -117.14965, 32.76452 ], [ -117.14965, 32.76456 ], [ -117.14798, 32.765 ], [ -117.14764, 32.76499 ] ] ], [ [ [ -117.15091, 32.76405 ], [ -117.1511, 32.76394 ], [ -117.15145, 32.76386 ], [ -117.15188, 32.764 ], [ -117.15105, 32.76421 ], [ -117.15104, 32.76405 ], [ -117.15091, 32.76405 ] ] ], [ [ [ -117.15275, 32.76375 ], [ -117.15291, 32.7635 ], [ -117.15325, 32.76338 ], [ -117.15343, 32.76336 ], [ -117.1536, 32.7634 ], [ -117.15405, 32.76323 ], [ -117.15444, 32.76314 ], [ -117.15463, 32.76316 ], [ -117.15481, 32.76324 ], [ -117.15401, 32.76345 ], [ -117.15391, 32.76342 ], [ -117.15327, 32.76358 ], [ -117.1531, 32.76369 ], [ -117.15275, 32.76375 ] ] ], [ [ [ -117.15691, 32.7627 ], [ -117.15713, 32.76264 ], [ -117.15749, 32.76255 ], [ -117.15749, 32.76255 ], [ -117.15691, 32.7627 ] ] ] ] } }
]
}
