{
"type": "FeatureCollection",
"name": "boundary",
"crs": { "type": "name", "properties": { "name": "urn:ogc:def:crs:OGC:1.3:CRS84" } },
"xy_coordinate_resolution": 1e-05,
"features": [
{ "type": "Feature", "properties": { "name": "Uptown" }, "geometry": { "type": "Polygon", "coordinates": [ [ [ -117.14304, 32.76603 ], [ -117.14299, 32.76252 ], [ -117.14337, 32.76247 ], [ -117.14628, 32.76247 ], [ -117.14625, 32.75592 ], [ -117.14637, 32.75524 ], [ -117.14632, 32.74667 ], [ -117.14643, 32.74637 ], [ -117.14725, 32.74538 ], [ -117.14748, 32.74486 ], [ -117.14753, 32.74458 ], [ -117.14753, 32.74117 ], [ -117.15337, 32.74112 ], [ -117.15328, 32.74106 ], [ -117.15949, 32.74104 ], [ -117.15942, 32.74061 ], [ -117.1594, 32.73976 ], [ -117.15939, 32.7293 ], [ -117.15945, 32.72406 ], [ -117.15933, 32.72299 ], [ -117.16022, 32.72279 ], [ -117.16114, 32.72273 ], [ -117.16205, 32.72278 ], [ -117.16296, 32.72301 ], [ -117.16387, 32.72338 ], [ -117.16426, 32.72362 ], [ -117.16479, 32.72405 ], [ -117.16742, 32.72688 ], [ -117.17137, 32.73159 ], [ -117.17855, 32.73964 ], [ -117.17998, 32.74114 ], [ -117.18115, 32.74187 ], [ -117.19173, 32.74681 ], [ -117.1907, 32.74794 ], [ -117.19062, 32.7479 ], [ -117.19024, 32.74836 ], [ -117.19032, 32.7484 ], [ -117.18948, 32.74936 ], [ -117.18949, 32.74944 ], [ -117.19214, 32.75109 ], [ -117.19166, 32.75165 ], [ -117.19256, 32.75221 ], [ -117.19139, 32.75359 ], [ -117.19315, 32.75468 ], [ -117.19327, 32.75466 ], [ -117.19394, 32.75509 ], [ -117.19409, 32.75535 ], [ -117.19361, 32.75589 ], [ -117.19356, 32.75588 ], [ -117.1928, 32.75681 ], [ -117.19234, 32.75653 ], [ -117.19163, 32.75739 ], [ -117.19115, 32.7571 ], [ -117.18953, 32.75901 ], [ -117.18923, 32.75915 ], [ -117.18857, 32.75915 ], [ -117.18841, 32.75907 ], [ -117.18729, 32.75905 ], [ -117.18731, 32.75885 ], [ -117.1869, 32.75881 ], [ -117.18658, 32.75861 ], [ -117.18643, 32.7586 ], [ -117.18631, 32.75865 ], [ -117.18402, 32.75724 ], [ -117.18378, 32.75795 ], [ -117.18314, 32.75768 ], [ -117.18252, 32.75724 ], [ -117.18282, 32.7565 ], [ -117.18266, 32.75675 ], [ -117.18259, 32.75675 ], [ -117.18233, 32.75706 ], [ -117.18204, 32.75724 ], [ -117.18175, 32.75726 ], [ -117.1814, 32.75709 ], [ -117.17922, 32.7571 ], [ -117.17871, 32.75702 ], [ -117.17852, 32.75728 ], [ -117.17669, 32.75744 ], [ -117.17669, 32.75765 ], [ -117.17427, 32.75764 ], [ -117.17424, 32.75796 ], [ -117.17144, 32.75796 ], [ -117.17146, 32.7572 ], [ -117.16995, 32.7572 ], [ -117.16999, 32.75871 ], [ -117.16832, 32.75903 ], [ -117.16831, 32.75848 ], [ -117.16559, 32.75831 ], [ -117.16361, 32.75939 ], [ -117.16366, 32.75968 ], [ -117.16361, 32.76011 ], [ -117.16303, 32.76023 ], [ -117.16279, 32.75983 ], [ -117.16237, 32.75935 ], [ -117.15991, 32.75714 ], [ -117.1599, 32.75799 ], [ -117.16055, 32.75943 ], [ -117.16036, 32.75992 ], [ -117.1605, 32.76069 ], [ -117.16036, 32.76116 ], [ -117.15976, 32.76132 ], [ -117.1597, 32.76092 ], [ -117.15823, 32.76092 ], [ -117.15823, 32.76116 ], [ -117.15813, 32.76127 ], [ -117.15748, 32.76148 ], [ -117.15749, 32.76255 ], [ -117.15401, 32.76345 ], [ -117.15391, 32.76342 ], [ -117.15327, 32.76358 ], [ -117.1531, 32.76369 ], [ -117.15105, 32.76421 ], [ -117.15104, 32.76405 ], [ -117.14965, 32.76404 ], [ -117.14965, 32.76456 ], [ -117.14798, 32.765 ], [ -117.14719, 32.76501 ], [ -117.14304, 32.76603 ] ] ] } }
]
}
