{
"type": "FeatureCollection",
"name": "bus",
"crs": { "type": "name", "properties": { "name": "urn:ogc:def:crs:OGC:1.3:CRS84" } },
"xy_coordinate_resolution": 1e-05,
"features": [
{ "type": "Feature", "properties": { }, "geometry": { "type": "MultiPolygon", "coordinates": [ [ [ [ -117.18939, 32.74572 ], [ -117.18966, 32.74594 ], [ -117.18969, 32.74622 ], [ -117.19118, 32.74691 ], [ -117.19144, 32.74715 ], [ -117.19081, 32.74782 ], [ -117.19042, 32.74775 ], [ -117.19021, 32.74766 ], [ -117.19004, 32.74749 ], [ -117.18948, 32.74724 ], [ -117.18931, 32.74698 ], [ -117.18914, 32.74691 ], [ -117.18883, 32.74738 ], [ -117.18893, 32.74766 ], [ -117.18885, 32.74788 ], [ -117.18863, 32.74804 ], [ -117.1883, 32.74805 ], [ -117.18806, 32.74792 ], [ -117.18787, 32.74757 ], [ -117.18783, 32.74742 ], [ -117.18787, 32.74719 ], [ -117.18663, 32.7466 ], [ -117.1866, 32.74666 ], [ -117.18661, 32.74693 ], [ -117.1864, 32.74715 ], [ -117.18618, 32.74722 ], [ -117.18599, 32.7472 ], [ -117.18547, 32.74691 ], [ -117.18474, 32.74775 ], [ -117.18449, 32.74786 ], [ -117.18425, 32.74784 ], [ -117.18376, 32.74756 ], [ -117.18363, 32.7473 ], [ -117.18365, 32.74714 ], [ -117.18375, 32.747 ], [ -117.18405, 32.74687 ], [ -117.18378, 32.74667 ], [ -117.18369, 32.74644 ], [ -117.18379, 32.74618 ], [ -117.18402, 32.74604 ], [ -117.18337, 32.74564 ], [ -117.18328, 32.74591 ], [ -117.1831, 32.74604 ], [ -117.18283, 32.74608 ], [ -117.18281, 32.74633 ], [ -117.18259, 32.74653 ], [ -117.1824, 32.74658 ], [ -117.18221, 32.74656 ], [ -117.18176, 32.74633 ], [ -117.18153, 32.74659 ], [ -117.18138, 32.74669 ], [ -117.18115, 32.74673 ], [ -117.18092, 32.74667 ], [ -117.18075, 32.74653 ], [ -117.18068, 32.74634 ], [ -117.18073, 32.74614 ], [ -117.18096, 32.74586 ], [ -117.18079, 32.74567 ], [ -117.18077, 32.74547 ], [ -117.18089, 32.74525 ], [ -117.18113, 32.74513 ], [ -117.18097, 32.74503 ], [ -117.18077, 32.74505 ], [ -117.18055, 32.74499 ], [ -117.18041, 32.74487 ], [ -117.18034, 32.74473 ], [ -117.18012, 32.74496 ], [ -117.17995, 32.74503 ], [ -117.17972, 32.74505 ], [ -117.1795, 32.74497 ], [ -117.17935, 32.74481 ], [ -117.17931, 32.74461 ], [ -117.17939, 32.74442 ], [ -117.17962, 32.74417 ], [ -117.17904, 32.74381 ], [ -117.1789, 32.74362 ], [ -117.1789, 32.74338 ], [ -117.17925, 32.74293 ], [ -117.17924, 32.74275 ], [ -117.17933, 32.74253 ], [ -117.17963, 32.74228 ], [ -117.17945, 32.74218 ], [ -117.17927, 32.7422 ], [ -117.17908, 32.74216 ], [ -117.17885, 32.74196 ], [ -117.17882, 32.74172 ], [ -117.17888, 32.74157 ], [ -117.17903, 32.74145 ], [ -117.17898, 32.74129 ], [ -117.17903, 32.74109 ], [ -117.17914, 32.74096 ], [ -117.17931, 32.74088 ], [ -117.17949, 32.74086 ], [ -117.17968, 32.7409 ], [ -117.17983, 32.74099 ], [ -117.18033, 32.74151 ], [ -117.18059, 32.74167 ], [ -117.18176, 32.74224 ], [ -117.18184, 32.74219 ], [ -117.18307, 32.74276 ], [ -117.18298, 32.74282 ], [ -117.18379, 32.74324 ], [ -117.18447, 32.74373 ], [ -117.18479, 32.74363 ], [ -117.18517, 32.74375 ], [ -117.18536, 32.74397 ], [ -117.18536, 32.74422 ], [ -117.18551, 32.74429 ], [ -117.1857, 32.74399 ], [ -117.18656, 32.74439 ], [ -117.18672, 32.74468 ], [ -117.18683, 32.74473 ], [ -117.18704, 32.74469 ], [ -117.18722, 32.74472 ], [ -117.18742, 32.74484 ], [ -117.18752, 32.74504 ], [ -117.1878, 32.74517 ], [ -117.18804, 32.74509 ], [ -117.18939, 32.74572 ] ], [ [ -117.18401, 32.74458 ], [ -117.18384, 32.74469 ], [ -117.18403, 32.74484 ], [ -117.18411, 32.74507 ], [ -117.18433, 32.74521 ], [ -117.18447, 32.74514 ], [ -117.18411, 32.74476 ], [ -117.18401, 32.74458 ] ], [ [ -117.18088, 32.74411 ], [ -117.18106, 32.74412 ], [ -117.18108, 32.74409 ], [ -117.18093, 32.74404 ], [ -117.18088, 32.74411 ] ] ], [ [ [ -117.17941, 32.74055 ], [ -117.17933, 32.74048 ], [ -117.17927, 32.7404 ], [ -117.17941, 32.74055 ] ] ], [ [ [ -117.17039, 32.7309 ], [ -117.17008, 32.73107 ], [ -117.17005, 32.73119 ], [ -117.17017, 32.73147 ], [ -117.17034, 32.73164 ], [ -117.17046, 32.7321 ], [ -117.16992, 32.73377 ], [ -117.16992, 32.73518 ], [ -117.17026, 32.73526 ], [ -117.17045, 32.73548 ], [ -117.17047, 32.73564 ], [ -117.17041, 32.73579 ], [ -117.17016, 32.73598 ], [ -117.17038, 32.73655 ], [ -117.17039, 32.73693 ], [ -117.17056, 32.73709 ], [ -117.17063, 32.73728 ], [ -117.17079, 32.73738 ], [ -117.1709, 32.73755 ], [ -117.17092, 32.73827 ], [ -117.17087, 32.73842 ], [ -117.17075, 32.73855 ], [ -117.17058, 32.73863 ], [ -117.17042, 32.73864 ], [ -117.17034, 32.7389 ], [ -117.16981, 32.73963 ], [ -117.17, 32.73981 ], [ -117.17003, 32.74008 ], [ -117.16995, 32.74023 ], [ -117.16978, 32.74035 ], [ -117.16968, 32.74056 ], [ -117.16951, 32.74068 ], [ -117.17013, 32.74134 ], [ -117.17039, 32.7412 ], [ -117.17069, 32.74121 ], [ -117.1709, 32.74129 ], [ -117.17107, 32.74149 ], [ -117.17132, 32.74164 ], [ -117.17185, 32.74181 ], [ -117.1721, 32.7417 ], [ -117.17233, 32.7417 ], [ -117.1725, 32.74177 ], [ -117.17263, 32.74189 ], [ -117.17269, 32.74204 ], [ -117.17267, 32.74224 ], [ -117.17251, 32.74249 ], [ -117.17229, 32.7426 ], [ -117.17245, 32.74303 ], [ -117.17244, 32.74328 ], [ -117.1727, 32.74339 ], [ -117.17283, 32.7436 ], [ -117.17282, 32.7438 ], [ -117.17268, 32.74399 ], [ -117.17276, 32.74413 ], [ -117.17278, 32.74429 ], [ -117.17272, 32.74445 ], [ -117.17259, 32.74457 ], [ -117.17242, 32.74464 ], [ -117.1722, 32.74465 ], [ -117.17226, 32.74481 ], [ -117.17223, 32.74501 ], [ -117.17246, 32.74509 ], [ -117.17261, 32.74524 ], [ -117.17292, 32.74522 ], [ -117.17315, 32.74536 ], [ -117.17326, 32.74554 ], [ -117.17327, 32.74581 ], [ -117.17351, 32.74592 ], [ -117.17363, 32.74609 ], [ -117.17366, 32.74659 ], [ -117.17389, 32.7464 ], [ -117.17422, 32.74638 ], [ -117.17439, 32.74646 ], [ -117.17451, 32.74658 ], [ -117.17458, 32.74696 ], [ -117.17488, 32.74696 ], [ -117.17513, 32.74678 ], [ -117.17541, 32.74675 ], [ -117.17567, 32.74686 ], [ -117.17581, 32.74707 ], [ -117.17628, 32.74707 ], [ -117.17645, 32.74715 ], [ -117.17656, 32.74728 ], [ -117.17661, 32.74751 ], [ -117.17646, 32.74775 ], [ -117.17436, 32.74921 ], [ -117.17458, 32.74942 ], [ -117.17462, 32.74968 ], [ -117.17475, 32.74956 ], [ -117.17497, 32.74949 ], [ -117.17521, 32.74952 ], [ -117.1754, 32.74963 ], [ -117.17552, 32.74985 ], [ -117.17553, 32.75045 ], [ -117.17605, 32.75046 ], [ -117.17634, 32.7506 ], [ -117.17644, 32.75082 ], [ -117.17645, 32.75137 ], [ -117.17671, 32.75128 ], [ -117.17729, 32.75127 ], [ -117.17733, 32.75077 ], [ -117.17743, 32.75064 ], [ -117.17762, 32.75053 ], [ -117.17781, 32.7505 ], [ -117.17911, 32.7505 ], [ -117.17931, 32.75055 ], [ -117.17954, 32.75067 ], [ -117.18009, 32.7512 ], [ -117.18039, 32.75142 ], [ -117.18049, 32.75169 ], [ -117.18039, 32.75191 ], [ -117.18012, 32.75207 ], [ -117.17958, 32.75208 ], [ -117.17933, 32.75218 ], [ -117.17909, 32.75215 ], [ -117.17906, 32.75294 ], [ -117.1789, 32.75314 ], [ -117.17864, 32.75323 ], [ -117.17828, 32.7532 ], [ -117.17804, 32.75301 ], [ -117.17798, 32.75286 ], [ -117.17798, 32.75226 ], [ -117.17677, 32.75228 ], [ -117.17645, 32.75219 ], [ -117.17645, 32.75281 ], [ -117.17637, 32.75301 ], [ -117.17625, 32.75312 ], [ -117.17607, 32.75318 ], [ -117.1755, 32.7532 ], [ -117.17551, 32.75366 ], [ -117.17545, 32.75381 ], [ -117.17526, 32.75398 ], [ -117.17503, 32.75403 ], [ -117.17475, 32.75397 ], [ -117.17459, 32.75382 ], [ -117.17454, 32.75367 ], [ -117.17453, 32.75321 ], [ -117.17372, 32.75321 ], [ -117.17366, 32.75351 ], [ -117.17353, 32.75363 ], [ -117.17337, 32.75371 ], [ -117.17308, 32.75371 ], [ -117.17288, 32.7536 ], [ -117.17276, 32.75343 ], [ -117.17274, 32.75321 ], [ -117.17252, 32.75319 ], [ -117.17236, 32.75311 ], [ -117.17224, 32.75299 ], [ -117.17218, 32.75283 ], [ -117.1722, 32.75267 ], [ -117.17229, 32.75253 ], [ -117.17248, 32.75241 ], [ -117.17275, 32.75238 ], [ -117.17275, 32.75222 ], [ -117.17145, 32.75226 ], [ -117.17115, 32.75217 ], [ -117.171, 32.75202 ], [ -117.17094, 32.75207 ], [ -117.17098, 32.75239 ], [ -117.17121, 32.75241 ], [ -117.17142, 32.75251 ], [ -117.17154, 32.75268 ], [ -117.17156, 32.75288 ], [ -117.17148, 32.75303 ], [ -117.17135, 32.75314 ], [ -117.17118, 32.75321 ], [ -117.17099, 32.75322 ], [ -117.17098, 32.75391 ], [ -117.1709, 32.7541 ], [ -117.17073, 32.75424 ], [ -117.17045, 32.75429 ], [ -117.17018, 32.75419 ], [ -117.16972, 32.75419 ], [ -117.16955, 32.75411 ], [ -117.16942, 32.75395 ], [ -117.1694, 32.75375 ], [ -117.16949, 32.75356 ], [ -117.16975, 32.7534 ], [ -117.17001, 32.75336 ], [ -117.17001, 32.75322 ], [ -117.16976, 32.75322 ], [ -117.1695, 32.75328 ], [ -117.16904, 32.75326 ], [ -117.1688, 32.75314 ], [ -117.16867, 32.75294 ], [ -117.16864, 32.75271 ], [ -117.16871, 32.75252 ], [ -117.16888, 32.75238 ], [ -117.1691, 32.75233 ], [ -117.1691, 32.75227 ], [ -117.16891, 32.75222 ], [ -117.16876, 32.75212 ], [ -117.16865, 32.75186 ], [ -117.16868, 32.7517 ], [ -117.16879, 32.75157 ], [ -117.16909, 32.75145 ], [ -117.16909, 32.75079 ], [ -117.16888, 32.75099 ], [ -117.16843, 32.75111 ], [ -117.16837, 32.75136 ], [ -117.16812, 32.75155 ], [ -117.16826, 32.75169 ], [ -117.16831, 32.75188 ], [ -117.16827, 32.75204 ], [ -117.16813, 32.7522 ], [ -117.16782, 32.75229 ], [ -117.16736, 32.75218 ], [ -117.16707, 32.75227 ], [ -117.16692, 32.75239 ], [ -117.16641, 32.75257 ], [ -117.16582, 32.75298 ], [ -117.16623, 32.75297 ], [ -117.16678, 32.75318 ], [ -117.16695, 32.75337 ], [ -117.16695, 32.75365 ], [ -117.16685, 32.7538 ], [ -117.16679, 32.75402 ], [ -117.16666, 32.75418 ], [ -117.16613, 32.75448 ], [ -117.16595, 32.7545 ], [ -117.16567, 32.75447 ], [ -117.16562, 32.7546 ], [ -117.16561, 32.75492 ], [ -117.16553, 32.75508 ], [ -117.16523, 32.75529 ], [ -117.16497, 32.75534 ], [ -117.16479, 32.7553 ], [ -117.16462, 32.75519 ], [ -117.16453, 32.75505 ], [ -117.16451, 32.75485 ], [ -117.16417, 32.75491 ], [ -117.16389, 32.75477 ], [ -117.16378, 32.75459 ], [ -117.16377, 32.75422 ], [ -117.16332, 32.75424 ], [ -117.16302, 32.75412 ], [ -117.16277, 32.75367 ], [ -117.16274, 32.75326 ], [ -117.16222, 32.75326 ], [ -117.16225, 32.75341 ], [ -117.16222, 32.75356 ], [ -117.16179, 32.75408 ], [ -117.16156, 32.75421 ], [ -117.16127, 32.75421 ], [ -117.16107, 32.75411 ], [ -117.16094, 32.7539 ], [ -117.16091, 32.75236 ], [ -117.16053, 32.75236 ], [ -117.16024, 32.75232 ], [ -117.16009, 32.75251 ], [ -117.15983, 32.75261 ], [ -117.1596, 32.75259 ], [ -117.1594, 32.75248 ], [ -117.15931, 32.75234 ], [ -117.15921, 32.75203 ], [ -117.15923, 32.75187 ], [ -117.15932, 32.75173 ], [ -117.1597, 32.75153 ], [ -117.16034, 32.75148 ], [ -117.16042, 32.75119 ], [ -117.16038, 32.75103 ], [ -117.16019, 32.75094 ], [ -117.16007, 32.75082 ], [ -117.16001, 32.75066 ], [ -117.16001, 32.75042 ], [ -117.15849, 32.75049 ], [ -117.15845, 32.75091 ], [ -117.15822, 32.75127 ], [ -117.15804, 32.7514 ], [ -117.15779, 32.75145 ], [ -117.15766, 32.75162 ], [ -117.1574, 32.75172 ], [ -117.15716, 32.7517 ], [ -117.15697, 32.75158 ], [ -117.15686, 32.75141 ], [ -117.15685, 32.75123 ], [ -117.15657, 32.75111 ], [ -117.15645, 32.75087 ], [ -117.15611, 32.75092 ], [ -117.15593, 32.75086 ], [ -117.15581, 32.75077 ], [ -117.15485, 32.75087 ], [ -117.15457, 32.75072 ], [ -117.15447, 32.75049 ], [ -117.15403, 32.7506 ], [ -117.15374, 32.75074 ], [ -117.15229, 32.75113 ], [ -117.15193, 32.75126 ], [ -117.15185, 32.75143 ], [ -117.15171, 32.75154 ], [ -117.15135, 32.75165 ], [ -117.15194, 32.75184 ], [ -117.15213, 32.75196 ], [ -117.15221, 32.75211 ], [ -117.15238, 32.75281 ], [ -117.15224, 32.75306 ], [ -117.15195, 32.75318 ], [ -117.15163, 32.75311 ], [ -117.15142, 32.75287 ], [ -117.15147, 32.75332 ], [ -117.15164, 32.75339 ], [ -117.15176, 32.75351 ], [ -117.15183, 32.75378 ], [ -117.15174, 32.75397 ], [ -117.15159, 32.75408 ], [ -117.15161, 32.7543 ], [ -117.15154, 32.75449 ], [ -117.15137, 32.75463 ], [ -117.1511, 32.75468 ], [ -117.15114, 32.75534 ], [ -117.15113, 32.75678 ], [ -117.15136, 32.75679 ], [ -117.15153, 32.75685 ], [ -117.15167, 32.75697 ], [ -117.15174, 32.75715 ], [ -117.15175, 32.75907 ], [ -117.15169, 32.75926 ], [ -117.15157, 32.75939 ], [ -117.15136, 32.75947 ], [ -117.15051, 32.75949 ], [ -117.15051, 32.76098 ], [ -117.15046, 32.76113 ], [ -117.15034, 32.76126 ], [ -117.15007, 32.76135 ], [ -117.14869, 32.76135 ], [ -117.14869, 32.76207 ], [ -117.14897, 32.76221 ], [ -117.14908, 32.76248 ], [ -117.14902, 32.76267 ], [ -117.14889, 32.7628 ], [ -117.1488, 32.76307 ], [ -117.14858, 32.7633 ], [ -117.1478, 32.76365 ], [ -117.14761, 32.76369 ], [ -117.14736, 32.76367 ], [ -117.14714, 32.76355 ], [ -117.14655, 32.76347 ], [ -117.14646, 32.76349 ], [ -117.14635, 32.7636 ], [ -117.14625, 32.76409 ], [ -117.14613, 32.76421 ], [ -117.14597, 32.76429 ], [ -117.14578, 32.76431 ], [ -117.14552, 32.76422 ], [ -117.14517, 32.76423 ], [ -117.14442, 32.76445 ], [ -117.14408, 32.76439 ], [ -117.14394, 32.76428 ], [ -117.14386, 32.76414 ], [ -117.14388, 32.76365 ], [ -117.14367, 32.76373 ], [ -117.14344, 32.76372 ], [ -117.14324, 32.76362 ], [ -117.14302, 32.7634 ], [ -117.14299, 32.76252 ], [ -117.14337, 32.76247 ], [ -117.14628, 32.76247 ], [ -117.14625, 32.75592 ], [ -117.14637, 32.75524 ], [ -117.14632, 32.74667 ], [ -117.14643, 32.74637 ], [ -117.14725, 32.74538 ], [ -117.14748, 32.74486 ], [ -117.14753, 32.74458 ], [ -117.14753, 32.74117 ], [ -117.15062, 32.74113 ], [ -117.15055, 32.74136 ], [ -117.15055, 32.74223 ], [ -117.15044, 32.74245 ], [ -117.15016, 32.74259 ], [ -117.1493, 32.7426 ], [ -117.14936, 32.74276 ], [ -117.14934, 32.7429 ], [ -117.14963, 32.74306 ], [ -117.1497, 32.74321 ], [ -117.14971, 32.7434 ], [ -117.15126, 32.7434 ], [ -117.15153, 32.74349 ], [ -117.1517, 32.74373 ], [ -117.15172, 32.74446 ], [ -117.15196, 32.74466 ], [ -117.15198, 32.74496 ], [ -117.15294, 32.74495 ], [ -117.15296, 32.74473 ], [ -117.15305, 32.74458 ], [ -117.15324, 32.74446 ], [ -117.15348, 32.74444 ], [ -117.15366, 32.74448 ], [ -117.15383, 32.74462 ], [ -117.15391, 32.74477 ], [ -117.15392, 32.745 ], [ -117.15454, 32.74503 ], [ -117.15473, 32.74515 ], [ -117.15484, 32.74536 ], [ -117.15497, 32.74522 ], [ -117.15514, 32.74515 ], [ -117.15533, 32.74513 ], [ -117.15551, 32.74518 ], [ -117.15566, 32.74528 ], [ -117.15574, 32.74542 ], [ -117.15608, 32.74545 ], [ -117.15632, 32.74564 ], [ -117.15637, 32.74591 ], [ -117.15618, 32.74622 ], [ -117.15682, 32.74647 ], [ -117.15683, 32.74542 ], [ -117.15693, 32.74524 ], [ -117.15716, 32.74511 ], [ -117.15749, 32.74512 ], [ -117.15773, 32.74531 ], [ -117.15779, 32.74546 ], [ -117.15779, 32.74617 ], [ -117.1579, 32.74619 ], [ -117.15792, 32.74602 ], [ -117.158, 32.74589 ], [ -117.158, 32.74569 ], [ -117.1579, 32.74547 ], [ -117.15792, 32.7452 ], [ -117.15818, 32.7449 ], [ -117.1585, 32.74481 ], [ -117.15853, 32.74394 ], [ -117.1587, 32.74374 ], [ -117.15893, 32.74366 ], [ -117.15891, 32.74166 ], [ -117.15877, 32.74176 ], [ -117.15858, 32.7418 ], [ -117.15828, 32.74179 ], [ -117.15811, 32.74172 ], [ -117.15793, 32.74153 ], [ -117.15781, 32.74105 ], [ -117.15949, 32.74104 ], [ -117.15941, 32.74055 ], [ -117.1594, 32.73935 ], [ -117.15978, 32.73935 ], [ -117.15981, 32.73849 ], [ -117.16002, 32.73828 ], [ -117.16035, 32.73824 ], [ -117.16056, 32.73832 ], [ -117.1609, 32.7386 ], [ -117.16095, 32.73876 ], [ -117.16096, 32.73926 ], [ -117.1615, 32.73927 ], [ -117.16167, 32.73933 ], [ -117.1618, 32.73945 ], [ -117.16188, 32.73963 ], [ -117.16188, 32.74018 ], [ -117.16204, 32.7401 ], [ -117.16237, 32.74006 ], [ -117.16259, 32.74013 ], [ -117.16275, 32.7403 ], [ -117.16398, 32.7403 ], [ -117.1642, 32.74037 ], [ -117.16433, 32.74049 ], [ -117.1644, 32.74064 ], [ -117.1644, 32.7408 ], [ -117.16432, 32.74094 ], [ -117.16415, 32.74107 ], [ -117.16438, 32.7412 ], [ -117.16449, 32.74142 ], [ -117.16443, 32.7419 ], [ -117.16444, 32.74289 ], [ -117.16562, 32.74289 ], [ -117.16587, 32.743 ], [ -117.16601, 32.74321 ], [ -117.166, 32.74341 ], [ -117.16588, 32.74358 ], [ -117.16567, 32.74369 ], [ -117.16546, 32.74371 ], [ -117.16544, 32.74405 ], [ -117.16529, 32.74425 ], [ -117.16535, 32.74441 ], [ -117.16537, 32.74481 ], [ -117.16543, 32.74498 ], [ -117.16537, 32.74527 ], [ -117.16556, 32.74523 ], [ -117.16575, 32.74526 ], [ -117.16594, 32.74538 ], [ -117.16603, 32.74552 ], [ -117.16606, 32.74651 ], [ -117.16721, 32.7465 ], [ -117.16713, 32.74612 ], [ -117.16673, 32.74604 ], [ -117.16656, 32.74594 ], [ -117.1664, 32.74575 ], [ -117.16638, 32.74543 ], [ -117.16624, 32.7453 ], [ -117.16618, 32.7451 ], [ -117.16624, 32.74491 ], [ -117.1664, 32.74476 ], [ -117.16667, 32.74469 ], [ -117.16726, 32.74476 ], [ -117.16748, 32.74497 ], [ -117.16749, 32.74526 ], [ -117.16777, 32.74507 ], [ -117.16799, 32.74498 ], [ -117.16855, 32.74487 ], [ -117.16879, 32.74479 ], [ -117.16908, 32.74481 ], [ -117.16909, 32.74417 ], [ -117.16919, 32.744 ], [ -117.16934, 32.74389 ], [ -117.16956, 32.74385 ], [ -117.17037, 32.74388 ], [ -117.1708, 32.74386 ], [ -117.17067, 32.74356 ], [ -117.17028, 32.74354 ], [ -117.17003, 32.74336 ], [ -117.16964, 32.74335 ], [ -117.16938, 32.74317 ], [ -117.16925, 32.74235 ], [ -117.16931, 32.74215 ], [ -117.1695, 32.74199 ], [ -117.16939, 32.74187 ], [ -117.16866, 32.74179 ], [ -117.16848, 32.74166 ], [ -117.16839, 32.7414 ], [ -117.16834, 32.74137 ], [ -117.16799, 32.74179 ], [ -117.16774, 32.74191 ], [ -117.16755, 32.74191 ], [ -117.16738, 32.74185 ], [ -117.16724, 32.74173 ], [ -117.16717, 32.74159 ], [ -117.16717, 32.74142 ], [ -117.16723, 32.74128 ], [ -117.16777, 32.74066 ], [ -117.16824, 32.74037 ], [ -117.16858, 32.74031 ], [ -117.16872, 32.73966 ], [ -117.16893, 32.73927 ], [ -117.16891, 32.73808 ], [ -117.16844, 32.73808 ], [ -117.16823, 32.73799 ], [ -117.16807, 32.73779 ], [ -117.16808, 32.73752 ], [ -117.16822, 32.73736 ], [ -117.16839, 32.73728 ], [ -117.16911, 32.73725 ], [ -117.16905, 32.73703 ], [ -117.16872, 32.73677 ], [ -117.16859, 32.73651 ], [ -117.16847, 32.73572 ], [ -117.16827, 32.7359 ], [ -117.16799, 32.73595 ], [ -117.16773, 32.73585 ], [ -117.16756, 32.73562 ], [ -117.16756, 32.73441 ], [ -117.16769, 32.73416 ], [ -117.16801, 32.73384 ], [ -117.16801, 32.73316 ], [ -117.16769, 32.73241 ], [ -117.16773, 32.73213 ], [ -117.16754, 32.73201 ], [ -117.16744, 32.73186 ], [ -117.16726, 32.73186 ], [ -117.16723, 32.73219 ], [ -117.16699, 32.73243 ], [ -117.16662, 32.7325 ], [ -117.1663, 32.73237 ], [ -117.16618, 32.73225 ], [ -117.16612, 32.73208 ], [ -117.1661, 32.73168 ], [ -117.1657, 32.73166 ], [ -117.16545, 32.73147 ], [ -117.1654, 32.73132 ], [ -117.16539, 32.73083 ], [ -117.16478, 32.7308 ], [ -117.16435, 32.73046 ], [ -117.16427, 32.73027 ], [ -117.16426, 32.72978 ], [ -117.16404, 32.72979 ], [ -117.1639, 32.72997 ], [ -117.16364, 32.73006 ], [ -117.16336, 32.73001 ], [ -117.16318, 32.72988 ], [ -117.16311, 32.72973 ], [ -117.1631, 32.72942 ], [ -117.16315, 32.72907 ], [ -117.16325, 32.72892 ], [ -117.16321, 32.72885 ], [ -117.16309, 32.72875 ], [ -117.16271, 32.7287 ], [ -117.16252, 32.72856 ], [ -117.16212, 32.72856 ], [ -117.1619, 32.72847 ], [ -117.16175, 32.72828 ], [ -117.16172, 32.72806 ], [ -117.1616, 32.72786 ], [ -117.1616, 32.7277 ], [ -117.16099, 32.7277 ], [ -117.16081, 32.72764 ], [ -117.16069, 32.72754 ], [ -117.16061, 32.72738 ], [ -117.16059, 32.72713 ], [ -117.16068, 32.72687 ], [ -117.16091, 32.72672 ], [ -117.16137, 32.72671 ], [ -117.16143, 32.72666 ], [ -117.16118, 32.72665 ], [ -117.16101, 32.72659 ], [ -117.16068, 32.72631 ], [ -117.16059, 32.7261 ], [ -117.16039, 32.72599 ], [ -117.16018, 32.72596 ], [ -117.16002, 32.72587 ], [ -117.15992, 32.72574 ], [ -117.15988, 32.72554 ], [ -117.15971, 32.72536 ], [ -117.15966, 32.72503 ], [ -117.15965, 32.72292 ], [ -117.16022, 32.72279 ], [ -117.16114, 32.72273 ], [ -117.16205, 32.72278 ], [ -117.16296, 32.72301 ], [ -117.16387, 32.72338 ], [ -117.16426, 32.72362 ], [ -117.16448, 32.7238 ], [ -117.16449, 32.72459 ], [ -117.16488, 32.72465 ], [ -117.16505, 32.72473 ], [ -117.16524, 32.72489 ], [ -117.16542, 32.72528 ], [ -117.16541, 32.72559 ], [ -117.16545, 32.72563 ], [ -117.16627, 32.72563 ], [ -117.16709, 32.72653 ], [ -117.16674, 32.7266 ], [ -117.16634, 32.72663 ], [ -117.16634, 32.72671 ], [ -117.16665, 32.72673 ], [ -117.16724, 32.72669 ], [ -117.16787, 32.7274 ], [ -117.16774, 32.72744 ], [ -117.16778, 32.72754 ], [ -117.168, 32.72762 ], [ -117.1682, 32.72779 ], [ -117.16887, 32.72864 ], [ -117.16983, 32.72975 ], [ -117.16972, 32.72994 ], [ -117.1698, 32.73011 ], [ -117.17012, 32.73011 ], [ -117.17069, 32.73081 ], [ -117.17039, 32.7309 ] ], [ [ -117.16148, 32.74424 ], [ -117.16172, 32.74425 ], [ -117.16189, 32.74433 ], [ -117.16203, 32.74449 ], [ -117.16207, 32.74472 ], [ -117.16224, 32.74472 ], [ -117.16223, 32.74373 ], [ -117.16148, 32.74373 ], [ -117.16148, 32.74424 ] ], [ [ -117.16107, 32.7425 ], [ -117.16109, 32.74192 ], [ -117.16099, 32.74185 ], [ -117.16099, 32.74249 ], [ -117.16107, 32.7425 ] ], [ [ -117.1681, 32.7494 ], [ -117.16816, 32.74938 ], [ -117.1681, 32.74938 ], [ -117.1681, 32.7494 ] ], [ [ -117.16812, 32.74705 ], [ -117.16777, 32.74728 ], [ -117.1672, 32.74732 ], [ -117.16718, 32.7476 ], [ -117.16706, 32.74777 ], [ -117.16686, 32.74788 ], [ -117.1666, 32.74789 ], [ -117.16641, 32.74811 ], [ -117.16608, 32.74817 ], [ -117.16603, 32.74832 ], [ -117.16633, 32.74834 ], [ -117.16656, 32.74822 ], [ -117.16696, 32.7482 ], [ -117.16707, 32.74796 ], [ -117.1673, 32.74782 ], [ -117.16813, 32.7478 ], [ -117.16812, 32.74705 ] ], [ [ -117.16886, 32.74597 ], [ -117.16876, 32.74591 ], [ -117.16876, 32.74606 ], [ -117.1688, 32.74602 ], [ -117.16886, 32.74597 ] ], [ [ -117.1691, 32.73317 ], [ -117.16899, 32.7332 ], [ -117.16899, 32.73352 ], [ -117.1691, 32.73317 ] ], [ [ -117.16507, 32.74904 ], [ -117.16511, 32.74898 ], [ -117.16496, 32.74887 ], [ -117.16462, 32.74879 ], [ -117.1644, 32.74865 ], [ -117.1644, 32.74879 ], [ -117.16467, 32.74887 ], [ -117.16485, 32.74908 ], [ -117.16507, 32.74904 ] ], [ [ -117.16508, 32.74596 ], [ -117.16512, 32.74547 ], [ -117.16492, 32.74553 ], [ -117.16492, 32.74596 ], [ -117.16508, 32.74596 ] ], [ [ -117.16449, 32.744 ], [ -117.16445, 32.74402 ], [ -117.16449, 32.74402 ], [ -117.16449, 32.744 ] ], [ [ -117.16279, 32.7429 ], [ -117.1628, 32.74139 ], [ -117.16287, 32.74124 ], [ -117.16301, 32.74113 ], [ -117.16273, 32.74112 ], [ -117.16267, 32.7412 ], [ -117.16267, 32.74144 ], [ -117.16255, 32.74167 ], [ -117.16242, 32.74181 ], [ -117.16237, 32.74205 ], [ -117.16225, 32.74218 ], [ -117.16205, 32.74227 ], [ -117.16205, 32.74291 ], [ -117.16279, 32.7429 ] ], [ [ -117.14828, 32.75621 ], [ -117.14769, 32.75622 ], [ -117.14773, 32.75672 ], [ -117.14828, 32.75672 ], [ -117.14828, 32.75621 ] ], [ [ -117.15515, 32.74991 ], [ -117.15588, 32.74982 ], [ -117.1558, 32.74962 ], [ -117.15578, 32.74892 ], [ -117.15574, 32.74892 ], [ -117.15576, 32.74909 ], [ -117.15571, 32.74924 ], [ -117.15515, 32.74991 ] ], [ [ -117.15916, 32.74916 ], [ -117.15897, 32.749 ], [ -117.15901, 32.74954 ], [ -117.15917, 32.7495 ], [ -117.15916, 32.74916 ] ], [ [ -117.15631, 32.74761 ], [ -117.15664, 32.74752 ], [ -117.15664, 32.74732 ], [ -117.15626, 32.74716 ], [ -117.15626, 32.74754 ], [ -117.15615, 32.74781 ], [ -117.15631, 32.74761 ] ], [ [ -117.15037, 32.74496 ], [ -117.1504, 32.74468 ], [ -117.15019, 32.74474 ], [ -117.14972, 32.74474 ], [ -117.1497, 32.74498 ], [ -117.14958, 32.74515 ], [ -117.14938, 32.74526 ], [ -117.14905, 32.74528 ], [ -117.14907, 32.74544 ], [ -117.149, 32.7456 ], [ -117.14912, 32.7456 ], [ -117.14925, 32.74544 ], [ -117.14945, 32.74533 ], [ -117.1498, 32.74532 ], [ -117.14987, 32.74515 ], [ -117.15, 32.74504 ], [ -117.15018, 32.74497 ], [ -117.15037, 32.74496 ] ], [ [ -117.15074, 32.74445 ], [ -117.15074, 32.74422 ], [ -117.15063, 32.74422 ], [ -117.15058, 32.7445 ], [ -117.15074, 32.74445 ] ], [ [ -117.14889, 32.74238 ], [ -117.14883, 32.74214 ], [ -117.14875, 32.74214 ], [ -117.14875, 32.74238 ], [ -117.14889, 32.74238 ] ], [ [ -117.14867, 32.7458 ], [ -117.14842, 32.7458 ], [ -117.14833, 32.74592 ], [ -117.14861, 32.74592 ], [ -117.14867, 32.7458 ] ] ] ] } }
]
}
