{
"type": "FeatureCollection",
"name": "walk",
"crs": { "type": "name", "properties": { "name": "urn:ogc:def:crs:OGC:1.3:CRS84" } },
"xy_coordinate_resolution": 1e-05,
"features": [
{ "type": "Feature", "properties": { }, "geometry": { "type": "MultiPolygon", "coordinates": [ [ [ [ -117.18939, 32.74572 ], [ -117.18966, 32.74594 ], [ -117.18969, 32.74622 ], [ -117.19118, 32.74691 ], [ -117.19144, 32.74715 ], [ -117.19081, 32.74782 ], [ -117.19042, 32.74775 ], [ -117.19021, 32.74766 ], [ -117.19004, 32.74749 ], [ -117.18948, 32.74724 ], [ -117.18931, 32.74698 ], [ -117.18914, 32.74691 ], [ -117.18883, 32.74738 ], [ -117.18893, 32.74766 ], [ -117.18885, 32.74788 ], [ -117.18863, 32.74804 ], [ -117.1883, 32.74805 ], [ -117.18806, 32.74792 ], [ -117.18787, 32.74757 ], [ -117.18783, 32.74742 ], [ -117.18787, 32.74719 ], [ -117.18663, 32.7466 ], [ -117.1866, 32.74666 ], [ -117.18661, 32.74693 ], [ -117.1864, 32.74715 ], [ -117.18618, 32.74722 ], [ -117.18599, 32.7472 ], [ -117.18547, 32.74691 ], [ -117.18474, 32.74775 ], [ -117.18449, 32.74786 ], [ -117.18425, 32.74784 ], [ -117.18376, 32.74756 ], [ -117.18363, 32.7473 ], [ -117.18365, 32.74714 ], [ -117.18375, 32.747 ], [ -117.18405, 32.74687 ], [ -117.18378, 32.74667 ], [ -117.18369, 32.74644 ], [ -117.18379, 32.74618 ], [ -117.18402, 32.74604 ], [ -117.18337, 32.74564 ], [ -117.18328, 32.74591 ], [ -117.1831, 32.74604 ], [ -117.18283, 32.74608 ], [ -117.18281, 32.74633 ], [ -117.18259, 32.74653 ], [ -117.1824, 32.74658 ], [ -117.18221, 32.74656 ], [ -117.18176, 32.74633 ], [ -117.18153, 32.74659 ], [ -117.18138, 32.74669 ], [ -117.18115, 32.74673 ], [ -117.18096, 32.74669 ], [ -117.18078, 32.74656 ], [ -117.18069, 32.74638 ], [ -117.18073, 32.74614 ], [ -117.18096, 32.74586 ], [ -117.18081, 32.7457 ], [ -117.18076, 32.74551 ], [ -117.18086, 32.74528 ], [ -117.18113, 32.74513 ], [ -117.18097, 32.74503 ], [ -117.18072, 32.74505 ], [ -117.18051, 32.74496 ], [ -117.18035, 32.74476 ], [ -117.18036, 32.7445 ], [ -117.18005, 32.74444 ], [ -117.17987, 32.74426 ], [ -117.17984, 32.74398 ], [ -117.18006, 32.74367 ], [ -117.17957, 32.74335 ], [ -117.1793, 32.74302 ], [ -117.17923, 32.74287 ], [ -117.17925, 32.74271 ], [ -117.17935, 32.74249 ], [ -117.17964, 32.74227 ], [ -117.17943, 32.74202 ], [ -117.17931, 32.74174 ], [ -117.1793, 32.74158 ], [ -117.17936, 32.74143 ], [ -117.17948, 32.74131 ], [ -117.17965, 32.74124 ], [ -117.17984, 32.74122 ], [ -117.18002, 32.74127 ], [ -117.18059, 32.74167 ], [ -117.18149, 32.74211 ], [ -117.18176, 32.74224 ], [ -117.18184, 32.74219 ], [ -117.18307, 32.74276 ], [ -117.18298, 32.74282 ], [ -117.18379, 32.74324 ], [ -117.18447, 32.74373 ], [ -117.18479, 32.74363 ], [ -117.18517, 32.74375 ], [ -117.18536, 32.74397 ], [ -117.18536, 32.74422 ], [ -117.18551, 32.74429 ], [ -117.1857, 32.74399 ], [ -117.18656, 32.74439 ], [ -117.18672, 32.74468 ], [ -117.18683, 32.74473 ], [ -117.18704, 32.74469 ], [ -117.18722, 32.74472 ], [ -117.18742, 32.74484 ], [ -117.18752, 32.74504 ], [ -117.1878, 32.74517 ], [ -117.18804, 32.74509 ], [ -117.18939, 32.74572 ] ], [ [ -117.18447, 32.74514 ], [ -117.18411, 32.74476 ], [ -117.18401, 32.74458 ], [ -117.18384, 32.74469 ], [ -117.18403, 32.74484 ], [ -117.18411, 32.74507 ], [ -117.18433, 32.74521 ], [ -117.18447, 32.74514 ] ], [ [ -117.1809, 32.74411 ], [ -117.18106, 32.74412 ], [ -117.18108, 32.74409 ], [ -117.18093, 32.74404 ], [ -117.1809, 32.74411 ] ] ], [ [ [ -117.17941, 32.74055 ], [ -117.17933, 32.74048 ], [ -117.17927, 32.7404 ], [ -117.17941, 32.74055 ] ] ], [ [ [ -117.17039, 32.7309 ], [ -117.17008, 32.73107 ], [ -117.16998, 32.73131 ], [ -117.1697, 32.73155 ], [ -117.16954, 32.73164 ], [ -117.16936, 32.73167 ], [ -117.16933, 32.73195 ], [ -117.16909, 32.73214 ], [ -117.16878, 32.73221 ], [ -117.16859, 32.73219 ], [ -117.16841, 32.73208 ], [ -117.16818, 32.73216 ], [ -117.16784, 32.73215 ], [ -117.16761, 32.73207 ], [ -117.16744, 32.73186 ], [ -117.16726, 32.73186 ], [ -117.16723, 32.73219 ], [ -117.16699, 32.73243 ], [ -117.16662, 32.7325 ], [ -117.16627, 32.73235 ], [ -117.16612, 32.73208 ], [ -117.1661, 32.73168 ], [ -117.1657, 32.73166 ], [ -117.16554, 32.73157 ], [ -117.16543, 32.73144 ], [ -117.16539, 32.73083 ], [ -117.16487, 32.73082 ], [ -117.16462, 32.73071 ], [ -117.16437, 32.73048 ], [ -117.16429, 32.73035 ], [ -117.16426, 32.72978 ], [ -117.16374, 32.72978 ], [ -117.16332, 32.7296 ], [ -117.16319, 32.72948 ], [ -117.16314, 32.72933 ], [ -117.16314, 32.72911 ], [ -117.16325, 32.72892 ], [ -117.16321, 32.72885 ], [ -117.16309, 32.72875 ], [ -117.16271, 32.7287 ], [ -117.16252, 32.72856 ], [ -117.16212, 32.72856 ], [ -117.16191, 32.72847 ], [ -117.16176, 32.72831 ], [ -117.16172, 32.72806 ], [ -117.16162, 32.7279 ], [ -117.1616, 32.72753 ], [ -117.16115, 32.72752 ], [ -117.16099, 32.72744 ], [ -117.16086, 32.72732 ], [ -117.16081, 32.72708 ], [ -117.16091, 32.72686 ], [ -117.1611, 32.72674 ], [ -117.16137, 32.72671 ], [ -117.1615, 32.72663 ], [ -117.1615, 32.72603 ], [ -117.1616, 32.72581 ], [ -117.16188, 32.72566 ], [ -117.1624, 32.72565 ], [ -117.1624, 32.72497 ], [ -117.16248, 32.72477 ], [ -117.1624, 32.72462 ], [ -117.16239, 32.72438 ], [ -117.162, 32.72435 ], [ -117.16175, 32.72417 ], [ -117.16169, 32.72387 ], [ -117.16158, 32.72365 ], [ -117.16162, 32.72342 ], [ -117.16111, 32.7234 ], [ -117.16084, 32.72323 ], [ -117.16076, 32.72307 ], [ -117.16075, 32.72275 ], [ -117.16114, 32.72273 ], [ -117.16205, 32.72278 ], [ -117.16296, 32.72301 ], [ -117.16387, 32.72338 ], [ -117.16448, 32.7238 ], [ -117.16449, 32.72459 ], [ -117.16488, 32.72465 ], [ -117.16505, 32.72473 ], [ -117.16524, 32.72489 ], [ -117.16542, 32.72528 ], [ -117.16541, 32.72559 ], [ -117.16545, 32.72563 ], [ -117.16627, 32.72563 ], [ -117.16709, 32.72653 ], [ -117.16674, 32.7266 ], [ -117.16634, 32.72663 ], [ -117.16634, 32.72671 ], [ -117.16665, 32.72673 ], [ -117.16724, 32.72669 ], [ -117.16787, 32.7274 ], [ -117.16774, 32.72744 ], [ -117.16778, 32.72754 ], [ -117.168, 32.72762 ], [ -117.1682, 32.72779 ], [ -117.16887, 32.72864 ], [ -117.16983, 32.72975 ], [ -117.16972, 32.72994 ], [ -117.1698, 32.73011 ], [ -117.17012, 32.73011 ], [ -117.17069, 32.73081 ], [ -117.17039, 32.7309 ] ] ], [ [ [ -117.17366, 32.74733 ], [ -117.17363, 32.74749 ], [ -117.17355, 32.74761 ], [ -117.17408, 32.74762 ], [ -117.17432, 32.74771 ], [ -117.175, 32.74741 ], [ -117.17543, 32.7473 ], [ -117.1756, 32.74731 ], [ -117.17577, 32.74738 ], [ -117.17594, 32.74762 ], [ -117.17594, 32.74782 ], [ -117.17581, 32.74801 ], [ -117.1748, 32.74857 ], [ -117.17408, 32.74917 ], [ -117.1744, 32.74923 ], [ -117.1746, 32.74945 ], [ -117.17462, 32.75045 ], [ -117.17523, 32.75048 ], [ -117.17542, 32.7506 ], [ -117.17552, 32.75078 ], [ -117.17551, 32.75098 ], [ -117.17542, 32.75112 ], [ -117.17527, 32.75123 ], [ -117.17506, 32.75128 ], [ -117.17507, 32.75183 ], [ -117.17493, 32.75208 ], [ -117.17463, 32.7522 ], [ -117.17372, 32.75221 ], [ -117.17368, 32.75295 ], [ -117.1735, 32.75314 ], [ -117.17323, 32.75321 ], [ -117.17296, 32.75314 ], [ -117.17278, 32.75295 ], [ -117.17275, 32.75222 ], [ -117.17145, 32.75226 ], [ -117.17115, 32.75217 ], [ -117.171, 32.75202 ], [ -117.17094, 32.75207 ], [ -117.17098, 32.75239 ], [ -117.17121, 32.75241 ], [ -117.17138, 32.75248 ], [ -117.1715, 32.75261 ], [ -117.17156, 32.7528 ], [ -117.17153, 32.75296 ], [ -117.17139, 32.75312 ], [ -117.17122, 32.7532 ], [ -117.17099, 32.75322 ], [ -117.17098, 32.75391 ], [ -117.17093, 32.75407 ], [ -117.17077, 32.75422 ], [ -117.17055, 32.75429 ], [ -117.17036, 32.75427 ], [ -117.17018, 32.75419 ], [ -117.16976, 32.75421 ], [ -117.16959, 32.75414 ], [ -117.16946, 32.75402 ], [ -117.1694, 32.75387 ], [ -117.16941, 32.75371 ], [ -117.16959, 32.75348 ], [ -117.16979, 32.75339 ], [ -117.17001, 32.75336 ], [ -117.17001, 32.75322 ], [ -117.16976, 32.75322 ], [ -117.1695, 32.75328 ], [ -117.169, 32.75325 ], [ -117.16877, 32.75311 ], [ -117.16864, 32.75286 ], [ -117.16864, 32.75267 ], [ -117.16874, 32.75249 ], [ -117.16888, 32.75238 ], [ -117.1691, 32.75233 ], [ -117.1691, 32.75227 ], [ -117.16891, 32.75222 ], [ -117.16876, 32.75212 ], [ -117.16865, 32.75186 ], [ -117.16868, 32.7517 ], [ -117.16879, 32.75157 ], [ -117.16909, 32.75145 ], [ -117.16909, 32.75079 ], [ -117.16888, 32.75099 ], [ -117.16843, 32.75111 ], [ -117.16837, 32.75136 ], [ -117.16812, 32.75155 ], [ -117.16826, 32.75169 ], [ -117.16831, 32.75188 ], [ -117.16827, 32.75204 ], [ -117.16813, 32.7522 ], [ -117.16782, 32.75229 ], [ -117.16736, 32.75218 ], [ -117.16707, 32.75227 ], [ -117.16692, 32.75239 ], [ -117.16641, 32.75257 ], [ -117.16582, 32.75298 ], [ -117.16628, 32.75298 ], [ -117.16655, 32.75315 ], [ -117.16684, 32.75365 ], [ -117.16682, 32.75395 ], [ -117.16666, 32.75418 ], [ -117.16618, 32.75446 ], [ -117.16595, 32.7545 ], [ -117.16567, 32.75447 ], [ -117.16555, 32.75504 ], [ -117.16539, 32.75519 ], [ -117.1651, 32.75533 ], [ -117.16479, 32.7553 ], [ -117.16456, 32.7551 ], [ -117.16451, 32.75494 ], [ -117.16449, 32.75421 ], [ -117.16407, 32.75422 ], [ -117.16388, 32.75417 ], [ -117.16368, 32.75401 ], [ -117.16362, 32.75379 ], [ -117.16347, 32.7539 ], [ -117.16324, 32.75395 ], [ -117.16301, 32.75391 ], [ -117.16283, 32.75378 ], [ -117.16275, 32.75355 ], [ -117.16272, 32.75228 ], [ -117.1622, 32.75229 ], [ -117.16202, 32.75224 ], [ -117.16184, 32.75211 ], [ -117.16176, 32.75194 ], [ -117.16154, 32.75193 ], [ -117.16134, 32.75183 ], [ -117.16115, 32.75151 ], [ -117.1609, 32.75153 ], [ -117.16058, 32.75139 ], [ -117.16044, 32.75122 ], [ -117.16038, 32.75103 ], [ -117.16019, 32.75094 ], [ -117.16007, 32.75082 ], [ -117.16001, 32.75066 ], [ -117.16001, 32.75042 ], [ -117.15849, 32.75049 ], [ -117.15845, 32.75091 ], [ -117.15822, 32.75127 ], [ -117.15804, 32.7514 ], [ -117.15779, 32.75145 ], [ -117.15766, 32.75162 ], [ -117.1574, 32.75172 ], [ -117.15716, 32.7517 ], [ -117.15697, 32.75158 ], [ -117.15686, 32.75141 ], [ -117.15685, 32.75123 ], [ -117.15657, 32.75111 ], [ -117.15645, 32.75087 ], [ -117.15611, 32.75092 ], [ -117.15593, 32.75086 ], [ -117.15581, 32.75077 ], [ -117.15485, 32.75087 ], [ -117.15457, 32.75072 ], [ -117.15447, 32.75049 ], [ -117.15193, 32.75126 ], [ -117.15188, 32.7514 ], [ -117.15175, 32.75152 ], [ -117.15135, 32.75165 ], [ -117.15195, 32.75184 ], [ -117.15213, 32.75197 ], [ -117.15237, 32.75269 ], [ -117.15237, 32.75285 ], [ -117.15221, 32.75309 ], [ -117.1519, 32.75318 ], [ -117.15159, 32.75309 ], [ -117.15142, 32.75287 ], [ -117.15147, 32.75332 ], [ -117.15164, 32.75339 ], [ -117.15176, 32.75351 ], [ -117.15183, 32.75378 ], [ -117.15174, 32.75397 ], [ -117.15159, 32.75408 ], [ -117.15161, 32.7543 ], [ -117.15154, 32.75449 ], [ -117.15137, 32.75463 ], [ -117.1511, 32.75468 ], [ -117.15114, 32.75534 ], [ -117.15109, 32.75554 ], [ -117.15094, 32.75568 ], [ -117.15075, 32.75574 ], [ -117.14988, 32.75575 ], [ -117.14986, 32.75732 ], [ -117.14977, 32.75746 ], [ -117.14962, 32.75756 ], [ -117.14927, 32.75762 ], [ -117.14925, 32.75784 ], [ -117.14913, 32.75801 ], [ -117.14883, 32.75813 ], [ -117.14737, 32.75815 ], [ -117.14736, 32.75913 ], [ -117.14728, 32.75932 ], [ -117.14702, 32.75949 ], [ -117.14671, 32.75951 ], [ -117.14653, 32.75959 ], [ -117.14626, 32.75961 ], [ -117.14625, 32.75592 ], [ -117.14637, 32.75524 ], [ -117.14632, 32.74667 ], [ -117.14643, 32.74637 ], [ -117.14681, 32.74593 ], [ -117.14703, 32.74605 ], [ -117.14716, 32.74626 ], [ -117.14713, 32.74646 ], [ -117.14694, 32.74674 ], [ -117.14728, 32.74675 ], [ -117.1475, 32.74683 ], [ -117.14764, 32.74699 ], [ -117.14768, 32.74717 ], [ -117.14793, 32.74721 ], [ -117.14811, 32.74735 ], [ -117.14818, 32.7475 ], [ -117.14819, 32.74773 ], [ -117.14848, 32.74776 ], [ -117.14869, 32.74791 ], [ -117.14873, 32.74791 ], [ -117.14872, 32.7465 ], [ -117.14879, 32.74614 ], [ -117.14893, 32.746 ], [ -117.1491, 32.74593 ], [ -117.1491, 32.74567 ], [ -117.14925, 32.74544 ], [ -117.14949, 32.74532 ], [ -117.1498, 32.74532 ], [ -117.14987, 32.74515 ], [ -117.15, 32.74504 ], [ -117.15018, 32.74497 ], [ -117.15037, 32.74496 ], [ -117.15036, 32.74478 ], [ -117.15043, 32.74463 ], [ -117.15056, 32.74451 ], [ -117.15074, 32.74445 ], [ -117.15154, 32.74443 ], [ -117.15172, 32.74447 ], [ -117.15196, 32.74466 ], [ -117.15198, 32.74496 ], [ -117.15294, 32.74495 ], [ -117.15296, 32.74473 ], [ -117.15312, 32.74453 ], [ -117.15333, 32.74444 ], [ -117.15362, 32.74447 ], [ -117.15386, 32.74465 ], [ -117.15392, 32.745 ], [ -117.15454, 32.74503 ], [ -117.15473, 32.74515 ], [ -117.15484, 32.74536 ], [ -117.15505, 32.74518 ], [ -117.15538, 32.74514 ], [ -117.15559, 32.74523 ], [ -117.15574, 32.74542 ], [ -117.15598, 32.74543 ], [ -117.15616, 32.74549 ], [ -117.15632, 32.74564 ], [ -117.15638, 32.74583 ], [ -117.15634, 32.74599 ], [ -117.15618, 32.74622 ], [ -117.15682, 32.74647 ], [ -117.15682, 32.74546 ], [ -117.15693, 32.74524 ], [ -117.15707, 32.74514 ], [ -117.1573, 32.74509 ], [ -117.15749, 32.74512 ], [ -117.15768, 32.74524 ], [ -117.15779, 32.74546 ], [ -117.15779, 32.74617 ], [ -117.1579, 32.74619 ], [ -117.15792, 32.74602 ], [ -117.158, 32.74589 ], [ -117.158, 32.74569 ], [ -117.1579, 32.74547 ], [ -117.15791, 32.74524 ], [ -117.15798, 32.74509 ], [ -117.15818, 32.7449 ], [ -117.1585, 32.74481 ], [ -117.1585, 32.74406 ], [ -117.15857, 32.74386 ], [ -117.15874, 32.74372 ], [ -117.15892, 32.74367 ], [ -117.15958, 32.74365 ], [ -117.15979, 32.74371 ], [ -117.15981, 32.74323 ], [ -117.15986, 32.74308 ], [ -117.16006, 32.74291 ], [ -117.16034, 32.74286 ], [ -117.16073, 32.74296 ], [ -117.16091, 32.7431 ], [ -117.16099, 32.74328 ], [ -117.161, 32.74362 ], [ -117.16122, 32.74367 ], [ -117.1614, 32.7438 ], [ -117.16147, 32.74398 ], [ -117.16148, 32.74424 ], [ -117.16167, 32.74424 ], [ -117.16189, 32.74433 ], [ -117.16203, 32.74449 ], [ -117.16207, 32.74472 ], [ -117.16238, 32.74476 ], [ -117.16259, 32.74493 ], [ -117.16265, 32.74512 ], [ -117.16267, 32.74654 ], [ -117.16355, 32.74652 ], [ -117.16382, 32.74645 ], [ -117.16451, 32.74652 ], [ -117.16452, 32.74629 ], [ -117.16462, 32.74611 ], [ -117.16481, 32.74599 ], [ -117.16508, 32.74596 ], [ -117.16508, 32.7456 ], [ -117.16516, 32.74542 ], [ -117.16533, 32.74528 ], [ -117.16556, 32.74523 ], [ -117.16587, 32.74532 ], [ -117.16603, 32.74552 ], [ -117.16606, 32.74651 ], [ -117.16721, 32.7465 ], [ -117.16713, 32.74612 ], [ -117.16673, 32.74604 ], [ -117.16656, 32.74594 ], [ -117.1664, 32.74575 ], [ -117.16638, 32.74543 ], [ -117.16624, 32.7453 ], [ -117.16619, 32.74514 ], [ -117.1662, 32.74498 ], [ -117.16629, 32.74484 ], [ -117.16644, 32.74474 ], [ -117.16662, 32.74469 ], [ -117.16722, 32.74474 ], [ -117.16738, 32.74483 ], [ -117.16748, 32.74496 ], [ -117.16752, 32.74512 ], [ -117.16749, 32.74526 ], [ -117.16795, 32.74499 ], [ -117.16893, 32.74478 ], [ -117.16912, 32.74483 ], [ -117.16926, 32.74493 ], [ -117.16935, 32.74507 ], [ -117.16936, 32.74526 ], [ -117.1696, 32.74542 ], [ -117.1697, 32.74565 ], [ -117.16962, 32.74591 ], [ -117.16935, 32.74608 ], [ -117.16907, 32.74607 ], [ -117.16876, 32.74591 ], [ -117.16876, 32.74615 ], [ -117.16892, 32.74628 ], [ -117.16904, 32.74647 ], [ -117.1691, 32.7468 ], [ -117.1692, 32.74658 ], [ -117.16944, 32.74644 ], [ -117.17085, 32.74641 ], [ -117.1709, 32.7461 ], [ -117.17101, 32.74598 ], [ -117.17118, 32.7459 ], [ -117.17217, 32.74589 ], [ -117.17239, 32.74596 ], [ -117.17255, 32.74611 ], [ -117.1726, 32.74626 ], [ -117.1726, 32.74655 ], [ -117.17279, 32.74658 ], [ -117.17295, 32.74667 ], [ -117.17306, 32.7468 ], [ -117.1731, 32.74694 ], [ -117.17333, 32.74696 ], [ -117.17349, 32.74704 ], [ -117.17361, 32.74717 ], [ -117.17366, 32.74733 ] ], [ [ -117.16911, 32.74693 ], [ -117.1691, 32.74687 ], [ -117.1691, 32.74693 ], [ -117.16911, 32.74693 ] ], [ [ -117.16485, 32.74908 ], [ -117.1651, 32.74904 ], [ -117.16511, 32.74898 ], [ -117.16496, 32.74887 ], [ -117.16462, 32.74879 ], [ -117.1644, 32.74865 ], [ -117.1644, 32.74879 ], [ -117.16467, 32.74887 ], [ -117.16485, 32.74908 ] ], [ [ -117.16603, 32.74832 ], [ -117.16633, 32.74834 ], [ -117.1666, 32.74821 ], [ -117.16696, 32.7482 ], [ -117.16707, 32.74796 ], [ -117.1673, 32.74782 ], [ -117.16813, 32.7478 ], [ -117.16812, 32.74705 ], [ -117.16777, 32.74728 ], [ -117.1672, 32.74732 ], [ -117.16719, 32.74756 ], [ -117.16709, 32.74774 ], [ -117.16686, 32.74788 ], [ -117.1666, 32.74789 ], [ -117.16651, 32.74802 ], [ -117.16637, 32.74813 ], [ -117.16608, 32.74817 ], [ -117.16603, 32.74832 ] ], [ [ -117.16816, 32.7494 ], [ -117.1681, 32.74938 ], [ -117.1681, 32.7494 ], [ -117.16816, 32.7494 ] ], [ [ -117.15916, 32.74916 ], [ -117.15897, 32.749 ], [ -117.15901, 32.74954 ], [ -117.15917, 32.7495 ], [ -117.15916, 32.74916 ] ], [ [ -117.15515, 32.74991 ], [ -117.15588, 32.74982 ], [ -117.1558, 32.74962 ], [ -117.15578, 32.74892 ], [ -117.15574, 32.74892 ], [ -117.15576, 32.74909 ], [ -117.15571, 32.74924 ], [ -117.15515, 32.74991 ] ], [ [ -117.15615, 32.74781 ], [ -117.15639, 32.74757 ], [ -117.15664, 32.74752 ], [ -117.15664, 32.74732 ], [ -117.15626, 32.74716 ], [ -117.15626, 32.74754 ], [ -117.15615, 32.74781 ] ], [ [ -117.14769, 32.75622 ], [ -117.14773, 32.75672 ], [ -117.14828, 32.75672 ], [ -117.14828, 32.75621 ], [ -117.14769, 32.75622 ] ] ] ] } }
]
}
